{"type": "FeatureCollection", "name": "customer_hex_v2", "features": [{"type": "Feature", "properties": {"customer_hex_id": "CH-q-6_r1", "q": -6, "r": 1, "worker_hex_id": "WH-06", "centroid_lon": 75.7739865, "centroid_lat": 22.7569628, "area_inside_imc_km2": 1.097}, "geometry": {"type": "Polygon", "coordinates": [[[75.7818656, 22.7611872], [75.7739865, 22.7654115], [75.7661074, 22.7611872], [75.7661074, 22.7527385], [75.7739865, 22.7485142], [75.7818656, 22.7527385], [75.7818656, 22.7611872]]]}}, {"type": "Feature", "properties": {"customer_hex_id": "CH-q-6_r2", "q": -6, "r": 2, "worker_hex_id": "WH-06", "centroid_lon": 75.7818656, "centroid_lat": 22.7696358, "area_inside_imc_km2": 0.99}, "geometry": {"type": "Polygon", "coordinates": [[[75.7897447, 22.7738601], [75.7818656, 22.7780845], [75.7739865, 22.7738601], [75.7739865, 22.7654115], [75.7818656, 22.7611872], [75.7897447, 22.7654115], [75.7897447, 22.7738601]]]}}, {"type": "Feature", "properties": {"customer_hex_id": "CH-q-5_r0", "q": -5, "r": 0, "worker_hex_id": "WH-06", "centroid_lon": 75.7818656, "centroid_lat": 22.7442899, "area_inside_imc_km2": 1.571}, "geometry": {"type": "Polygon", "coordinates": [[[75.7897447, 22.7485142], [75.7818656, 22.7527385], [75.7739865, 22.7485142], [75.7739865, 22.7400656], [75.7818656, 22.7358412], [75.7897447, 22.7400656], [75.7897447, 22.7485142]]]}}, {"type": "Feature", "properties": {"customer_hex_id": "CH-q-5_r1", "q": -5, "r": 1, "worker_hex_id": "WH-06", "centroid_lon": 75.7897447, "centroid_lat": 22.7569628, "area_inside_imc_km2": 2.269}, "geometry": {"type": "Polygon", "coordinates": [[[75.7976238, 22.7611872], [75.7897447, 22.7654115], [75.7818656, 22.7611872], [75.7818656, 22.7527385], [75.7897447, 22.7485142], [75.7976238, 22.7527385], [75.7976238, 22.7611872]]]}}, {"type": "Feature", "properties": {"customer_hex_id": "CH-q-5_r2", "q": -5, "r": 2, "worker_hex_id": "WH-06", "centroid_lon": 75.7976238, "centroid_lat": 22.7696358, "area_inside_imc_km2": 1.646}, "geometry": {"type": "Polygon", "coordinates": [[[75.8055029, 22.7738601], [75.7976238, 22.7780845], [75.7897447, 22.7738601], [75.7897447, 22.7654115], [75.7976238, 22.7611872], [75.8055029, 22.7654115], [75.8055029, 22.7738601]]]}}, {"type": "Feature", "properties": {"customer_hex_id": "CH-q-5_r5", "q": -5, "r": 5, "worker_hex_id": "WH-01", "centroid_lon": 75.8212611, "centroid_lat": 22.8076547, "area_inside_imc_km2": 0.397}, "geometry": {"type": "Polygon", "coordinates": [[[75.8291402, 22.811879], [75.8212611, 22.8161033], [75.813382, 22.811879], [75.813382, 22.8034304], [75.8212611, 22.7992061], [75.8291402, 22.8034304], [75.8291402, 22.811879]]]}}, {"type": "Feature", "properties": {"customer_hex_id": "CH-q-5_r6", "q": -5, "r": 6, "worker_hex_id": "WH-01", "centroid_lon": 75.8291402, "centroid_lat": 22.8203277, "area_inside_imc_km2": 0.326}, "geometry": {"type": "Polygon", "coordinates": [[[75.8370193, 22.824552], [75.8291402, 22.8287763], [75.8212611, 22.824552], [75.8212611, 22.8161033], [75.8291402, 22.811879], [75.8370193, 22.8161033], [75.8370193, 22.824552]]]}}, {"type": "Feature", "properties": {"customer_hex_id": "CH-q-4_r-1", "q": -4, "r": -1, "worker_hex_id": "WH-14", "centroid_lon": 75.7897447, "centroid_lat": 22.7316169, "area_inside_imc_km2": 0.096}, "geometry": {"type": "Polygon", "coordinates": [[[75.7976238, 22.7358412], [75.7897447, 22.7400656], [75.7818656, 22.7358412], [75.7818656, 22.7273926], [75.7897447, 22.7231683], [75.7976238, 22.7273926], [75.7976238, 22.7358412]]]}}, {"type": "Feature", "properties": {"customer_hex_id": "CH-q-4_r0", "q": -4, "r": 0, "worker_hex_id": "WH-06", "centroid_lon": 75.7976238, "centroid_lat": 22.7442899, "area_inside_imc_km2": 2.269}, "geometry": {"type": "Polygon", "coordinates": [[[75.8055029, 22.7485142], [75.7976238, 22.7527385], [75.7897447, 22.7485142], [75.7897447, 22.7400656], [75.7976238, 22.7358412], [75.8055029, 22.7400656], [75.8055029, 22.7485142]]]}}, {"type": "Feature", "properties": {"customer_hex_id": "CH-q-4_r1", "q": -4, "r": 1, "worker_hex_id": "WH-06", "centroid_lon": 75.8055029, "centroid_lat": 22.7569628, "area_inside_imc_km2": 2.269}, "geometry": {"type": "Polygon", "coordinates": [[[75.813382, 22.7611872], [75.8055029, 22.7654115], [75.7976238, 22.7611872], [75.7976238, 22.7527385], [75.8055029, 22.7485142], [75.813382, 22.7527385], [75.813382, 22.7611872]]]}}, {"type": "Feature", "properties": {"customer_hex_id": "CH-q-4_r2", "q": -4, "r": 2, "worker_hex_id": "WH-03", "centroid_lon": 75.813382, "centroid_lat": 22.7696358, "area_inside_imc_km2": 1.455}, "geometry": {"type": "Polygon", "coordinates": [[[75.8212611, 22.7738601], [75.813382, 22.7780845], [75.8055029, 22.7738601], [75.8055029, 22.7654115], [75.813382, 22.7611872], [75.8212611, 22.7654115], [75.8212611, 22.7738601]]]}}, {"type": "Feature", "properties": {"customer_hex_id": "CH-q-4_r3", "q": -4, "r": 3, "worker_hex_id": "WH-03", "centroid_lon": 75.8212611, "centroid_lat": 22.7823088, "area_inside_imc_km2": 1.052}, "geometry": {"type": "Polygon", "coordinates": [[[75.8291402, 22.7865331], [75.8212611, 22.7907574], [75.813382, 22.7865331], [75.813382, 22.7780845], [75.8212611, 22.7738601], [75.8291402, 22.7780845], [75.8291402, 22.7865331]]]}}, {"type": "Feature", "properties": {"customer_hex_id": "CH-q-4_r4", "q": -4, "r": 4, "worker_hex_id": "WH-01", "centroid_lon": 75.8291402, "centroid_lat": 22.7949817, "area_inside_imc_km2": 2.002}, "geometry": {"type": "Polygon", "coordinates": [[[75.8370193, 22.7992061], [75.8291402, 22.8034304], [75.8212611, 22.7992061], [75.8212611, 22.7907574], [75.8291402, 22.7865331], [75.8370193, 22.7907574], [75.8370193, 22.7992061]]]}}, {"type": "Feature", "properties": {"customer_hex_id": "CH-q-4_r5", "q": -4, "r": 5, "worker_hex_id": "WH-01", "centroid_lon": 75.8370193, "centroid_lat": 22.8076547, "area_inside_imc_km2": 2.229}, "geometry": {"type": "Polygon", "coordinates": [[[75.8448984, 22.811879], [75.8370193, 22.8161033], [75.8291402, 22.811879], [75.8291402, 22.8034304], [75.8370193, 22.7992061], [75.8448984, 22.8034304], [75.8448984, 22.811879]]]}}, {"type": "Feature", "properties": {"customer_hex_id": "CH-q-4_r6", "q": -4, "r": 6, "worker_hex_id": "WH-01", "centroid_lon": 75.8448984, "centroid_lat": 22.8203277, "area_inside_imc_km2": 0.496}, "geometry": {"type": "Polygon", "coordinates": [[[75.8527775, 22.824552], [75.8448984, 22.8287763], [75.8370193, 22.824552], [75.8370193, 22.8161033], [75.8448984, 22.811879], [75.8527775, 22.8161033], [75.8527775, 22.824552]]]}}, {"type": "Feature", "properties": {"customer_hex_id": "CH-q-3_r-2", "q": -3, "r": -2, "worker_hex_id": "WH-14", "centroid_lon": 75.7976238, "centroid_lat": 22.718944, "area_inside_imc_km2": 0.517}, "geometry": {"type": "Polygon", "coordinates": [[[75.8055029, 22.7231683], [75.7976238, 22.7273926], [75.7897447, 22.7231683], [75.7897447, 22.7147196], [75.7976238, 22.7104953], [75.8055029, 22.7147196], [75.8055029, 22.7231683]]]}}, {"type": "Feature", "properties": {"customer_hex_id": "CH-q-3_r-1", "q": -3, "r": -1, "worker_hex_id": "WH-09", "centroid_lon": 75.8055029, "centroid_lat": 22.7316169, "area_inside_imc_km2": 2.014}, "geometry": {"type": "Polygon", "coordinates": [[[75.813382, 22.7358412], [75.8055029, 22.7400656], [75.7976238, 22.7358412], [75.7976238, 22.7273926], [75.8055029, 22.7231683], [75.813382, 22.7273926], [75.813382, 22.7358412]]]}}, {"type": "Feature", "properties": {"customer_hex_id": "CH-q-3_r0", "q": -3, "r": 0, "worker_hex_id": "WH-09", "centroid_lon": 75.813382, "centroid_lat": 22.7442899, "area_inside_imc_km2": 2.269}, "geometry": {"type": "Polygon", "coordinates": [[[75.8212611, 22.7485142], [75.813382, 22.7527385], [75.8055029, 22.7485142], [75.8055029, 22.7400656], [75.813382, 22.7358412], [75.8212611, 22.7400656], [75.8212611, 22.7485142]]]}}, {"type": "Feature", "properties": {"customer_hex_id": "CH-q-3_r1", "q": -3, "r": 1, "worker_hex_id": "WH-03", "centroid_lon": 75.8212611, "centroid_lat": 22.7569628, "area_inside_imc_km2": 2.269}, "geometry": {"type": "Polygon", "coordinates": [[[75.8291402, 22.7611872], [75.8212611, 22.7654115], [75.813382, 22.7611872], [75.813382, 22.7527385], [75.8212611, 22.7485142], [75.8291402, 22.7527385], [75.8291402, 22.7611872]]]}}, {"type": "Feature", "properties": {"customer_hex_id": "CH-q-3_r2", "q": -3, "r": 2, "worker_hex_id": "WH-03", "centroid_lon": 75.8291402, "centroid_lat": 22.7696358, "area_inside_imc_km2": 2.235}, "geometry": {"type": "Polygon", "coordinates": [[[75.8370193, 22.7738601], [75.8291402, 22.7780845], [75.8212611, 22.7738601], [75.8212611, 22.7654115], [75.8291402, 22.7611872], [75.8370193, 22.7654115], [75.8370193, 22.7738601]]]}}, {"type": "Feature", "properties": {"customer_hex_id": "CH-q-3_r3", "q": -3, "r": 3, "worker_hex_id": "WH-03", "centroid_lon": 75.8370193, "centroid_lat": 22.7823088, "area_inside_imc_km2": 2.269}, "geometry": {"type": "Polygon", "coordinates": [[[75.8448984, 22.7865331], [75.8370193, 22.7907574], [75.8291402, 22.7865331], [75.8291402, 22.7780845], [75.8370193, 22.7738601], [75.8448984, 22.7780845], [75.8448984, 22.7865331]]]}}, {"type": "Feature", "properties": {"customer_hex_id": "CH-q-3_r4", "q": -3, "r": 4, "worker_hex_id": "WH-01", "centroid_lon": 75.8448984, "centroid_lat": 22.7949817, "area_inside_imc_km2": 2.121}, "geometry": {"type": "Polygon", "coordinates": [[[75.8527775, 22.7992061], [75.8448984, 22.8034304], [75.8370193, 22.7992061], [75.8370193, 22.7907574], [75.8448984, 22.7865331], [75.8527775, 22.7907574], [75.8527775, 22.7992061]]]}}, {"type": "Feature", "properties": {"customer_hex_id": "CH-q-3_r5", "q": -3, "r": 5, "worker_hex_id": "WH-01", "centroid_lon": 75.8527775, "centroid_lat": 22.8076547, "area_inside_imc_km2": 0.327}, "geometry": {"type": "Polygon", "coordinates": [[[75.8606566, 22.811879], [75.8527775, 22.8161033], [75.8448984, 22.811879], [75.8448984, 22.8034304], [75.8527775, 22.7992061], [75.8606566, 22.8034304], [75.8606566, 22.811879]]]}}, {"type": "Feature", "properties": {"customer_hex_id": "CH-q-2_r-6", "q": -2, "r": -6, "worker_hex_id": "WH-14", "centroid_lon": 75.7818656, "centroid_lat": 22.6682521, "area_inside_imc_km2": 0.187}, "geometry": {"type": "Polygon", "coordinates": [[[75.7897447, 22.6724764], [75.7818656, 22.6767008], [75.7739865, 22.6724764], [75.7739865, 22.6640278], [75.7818656, 22.6598035], [75.7897447, 22.6640278], [75.7897447, 22.6724764]]]}}, {"type": "Feature", "properties": {"customer_hex_id": "CH-q-2_r-5", "q": -2, "r": -5, "worker_hex_id": "WH-14", "centroid_lon": 75.7897447, "centroid_lat": 22.6809251, "area_inside_imc_km2": 0.868}, "geometry": {"type": "Polygon", "coordinates": [[[75.7976238, 22.6851494], [75.7897447, 22.6893737], [75.7818656, 22.6851494], [75.7818656, 22.6767008], [75.7897447, 22.6724764], [75.7976238, 22.6767008], [75.7976238, 22.6851494]]]}}, {"type": "Feature", "properties": {"customer_hex_id": "CH-q-2_r-4", "q": -2, "r": -4, "worker_hex_id": "WH-14", "centroid_lon": 75.7976238, "centroid_lat": 22.693598, "area_inside_imc_km2": 0.727}, "geometry": {"type": "Polygon", "coordinates": [[[75.8055029, 22.6978224], [75.7976238, 22.7020467], [75.7897447, 22.6978224], [75.7897447, 22.6893737], [75.7976238, 22.6851494], [75.8055029, 22.6893737], [75.8055029, 22.6978224]]]}}, {"type": "Feature", "properties": {"customer_hex_id": "CH-q-2_r-3", "q": -2, "r": -3, "worker_hex_id": "WH-14", "centroid_lon": 75.8055029, "centroid_lat": 22.706271, "area_inside_imc_km2": 0.808}, "geometry": {"type": "Polygon", "coordinates": [[[75.813382, 22.7104953], [75.8055029, 22.7147196], [75.7976238, 22.7104953], [75.7976238, 22.7020467], [75.8055029, 22.6978224], [75.813382, 22.7020467], [75.813382, 22.7104953]]]}}, {"type": "Feature", "properties": {"customer_hex_id": "CH-q-2_r-2", "q": -2, "r": -2, "worker_hex_id": "WH-09", "centroid_lon": 75.813382, "centroid_lat": 22.718944, "area_inside_imc_km2": 2.269}, "geometry": {"type": "Polygon", "coordinates": [[[75.8212611, 22.7231683], [75.813382, 22.7273926], [75.8055029, 22.7231683], [75.8055029, 22.7147196], [75.813382, 22.7104953], [75.8212611, 22.7147196], [75.8212611, 22.7231683]]]}}, {"type": "Feature", "properties": {"customer_hex_id": "CH-q-2_r-1", "q": -2, "r": -1, "worker_hex_id": "WH-09", "centroid_lon": 75.8212611, "centroid_lat": 22.7316169, "area_inside_imc_km2": 2.269}, "geometry": {"type": "Polygon", "coordinates": [[[75.8291402, 22.7358412], [75.8212611, 22.7400656], [75.813382, 22.7358412], [75.813382, 22.7273926], [75.8212611, 22.7231683], [75.8291402, 22.7273926], [75.8291402, 22.7358412]]]}}, {"type": "Feature", "properties": {"customer_hex_id": "CH-q-2_r0", "q": -2, "r": 0, "worker_hex_id": "WH-09", "centroid_lon": 75.8291402, "centroid_lat": 22.7442899, "area_inside_imc_km2": 2.269}, "geometry": {"type": "Polygon", "coordinates": [[[75.8370193, 22.7485142], [75.8291402, 22.7527385], [75.8212611, 22.7485142], [75.8212611, 22.7400656], [75.8291402, 22.7358412], [75.8370193, 22.7400656], [75.8370193, 22.7485142]]]}}, {"type": "Feature", "properties": {"customer_hex_id": "CH-q-2_r1", "q": -2, "r": 1, "worker_hex_id": "WH-03", "centroid_lon": 75.8370193, "centroid_lat": 22.7569628, "area_inside_imc_km2": 2.269}, "geometry": {"type": "Polygon", "coordinates": [[[75.8448984, 22.7611872], [75.8370193, 22.7654115], [75.8291402, 22.7611872], [75.8291402, 22.7527385], [75.8370193, 22.7485142], [75.8448984, 22.7527385], [75.8448984, 22.7611872]]]}}, {"type": "Feature", "properties": {"customer_hex_id": "CH-q-2_r2", "q": -2, "r": 2, "worker_hex_id": "WH-03", "centroid_lon": 75.8448984, "centroid_lat": 22.7696358, "area_inside_imc_km2": 2.255}, "geometry": {"type": "Polygon", "coordinates": [[[75.8527775, 22.7738601], [75.8448984, 22.7780845], [75.8370193, 22.7738601], [75.8370193, 22.7654115], [75.8448984, 22.7611872], [75.8527775, 22.7654115], [75.8527775, 22.7738601]]]}}, {"type": "Feature", "properties": {"customer_hex_id": "CH-q-2_r3", "q": -2, "r": 3, "worker_hex_id": "WH-04", "centroid_lon": 75.8527775, "centroid_lat": 22.7823088, "area_inside_imc_km2": 2.255}, "geometry": {"type": "Polygon", "coordinates": [[[75.8606566, 22.7865331], [75.8527775, 22.7907574], [75.8448984, 22.7865331], [75.8448984, 22.7780845], [75.8527775, 22.7738601], [75.8606566, 22.7780845], [75.8606566, 22.7865331]]]}}, {"type": "Feature", "properties": {"customer_hex_id": "CH-q-2_r4", "q": -2, "r": 4, "worker_hex_id": "WH-04", "centroid_lon": 75.8606566, "centroid_lat": 22.7949817, "area_inside_imc_km2": 0.918}, "geometry": {"type": "Polygon", "coordinates": [[[75.8685357, 22.7992061], [75.8606566, 22.8034304], [75.8527775, 22.7992061], [75.8527775, 22.7907574], [75.8606566, 22.7865331], [75.8685357, 22.7907574], [75.8685357, 22.7992061]]]}}, {"type": "Feature", "properties": {"customer_hex_id": "CH-q-2_r6", "q": -2, "r": 6, "worker_hex_id": "WH-04", "centroid_lon": 75.8764148, "centroid_lat": 22.8203277, "area_inside_imc_km2": 0.064}, "geometry": {"type": "Polygon", "coordinates": [[[75.8842939, 22.824552], [75.8764148, 22.8287763], [75.8685357, 22.824552], [75.8685357, 22.8161033], [75.8764148, 22.811879], [75.8842939, 22.8161033], [75.8842939, 22.824552]]]}}, {"type": "Feature", "properties": {"customer_hex_id": "CH-q-1_r-7", "q": -1, "r": -7, "worker_hex_id": "WH-18", "centroid_lon": 75.7897447, "centroid_lat": 22.6555792, "area_inside_imc_km2": 0.107}, "geometry": {"type": "Polygon", "coordinates": [[[75.7976238, 22.6598035], [75.7897447, 22.6640278], [75.7818656, 22.6598035], [75.7818656, 22.6513548], [75.7897447, 22.6471305], [75.7976238, 22.6513548], [75.7976238, 22.6598035]]]}}, {"type": "Feature", "properties": {"customer_hex_id": "CH-q-1_r-6", "q": -1, "r": -6, "worker_hex_id": "WH-18", "centroid_lon": 75.7976238, "centroid_lat": 22.6682521, "area_inside_imc_km2": 2.228}, "geometry": {"type": "Polygon", "coordinates": [[[75.8055029, 22.6724764], [75.7976238, 22.6767008], [75.7897447, 22.6724764], [75.7897447, 22.6640278], [75.7976238, 22.6598035], [75.8055029, 22.6640278], [75.8055029, 22.6724764]]]}}, {"type": "Feature", "properties": {"customer_hex_id": "CH-q-1_r-5", "q": -1, "r": -5, "worker_hex_id": "WH-14", "centroid_lon": 75.8055029, "centroid_lat": 22.6809251, "area_inside_imc_km2": 2.269}, "geometry": {"type": "Polygon", "coordinates": [[[75.813382, 22.6851494], [75.8055029, 22.6893737], [75.7976238, 22.6851494], [75.7976238, 22.6767008], [75.8055029, 22.6724764], [75.813382, 22.6767008], [75.813382, 22.6851494]]]}}, {"type": "Feature", "properties": {"customer_hex_id": "CH-q-1_r-4", "q": -1, "r": -4, "worker_hex_id": "WH-14", "centroid_lon": 75.813382, "centroid_lat": 22.693598, "area_inside_imc_km2": 2.269}, "geometry": {"type": "Polygon", "coordinates": [[[75.8212611, 22.6978224], [75.813382, 22.7020467], [75.8055029, 22.6978224], [75.8055029, 22.6893737], [75.813382, 22.6851494], [75.8212611, 22.6893737], [75.8212611, 22.6978224]]]}}, {"type": "Feature", "properties": {"customer_hex_id": "CH-q-1_r-3", "q": -1, "r": -3, "worker_hex_id": "WH-14", "centroid_lon": 75.8212611, "centroid_lat": 22.706271, "area_inside_imc_km2": 2.269}, "geometry": {"type": "Polygon", "coordinates": [[[75.8291402, 22.7104953], [75.8212611, 22.7147196], [75.813382, 22.7104953], [75.813382, 22.7020467], [75.8212611, 22.6978224], [75.8291402, 22.7020467], [75.8291402, 22.7104953]]]}}, {"type": "Feature", "properties": {"customer_hex_id": "CH-q-1_r-2", "q": -1, "r": -2, "worker_hex_id": "WH-09", "centroid_lon": 75.8291402, "centroid_lat": 22.718944, "area_inside_imc_km2": 2.269}, "geometry": {"type": "Polygon", "coordinates": [[[75.8370193, 22.7231683], [75.8291402, 22.7273926], [75.8212611, 22.7231683], [75.8212611, 22.7147196], [75.8291402, 22.7104953], [75.8370193, 22.7147196], [75.8370193, 22.7231683]]]}}, {"type": "Feature", "properties": {"customer_hex_id": "CH-q-1_r-1", "q": -1, "r": -1, "worker_hex_id": "WH-09", "centroid_lon": 75.8370193, "centroid_lat": 22.7316169, "area_inside_imc_km2": 2.269}, "geometry": {"type": "Polygon", "coordinates": [[[75.8448984, 22.7358412], [75.8370193, 22.7400656], [75.8291402, 22.7358412], [75.8291402, 22.7273926], [75.8370193, 22.7231683], [75.8448984, 22.7273926], [75.8448984, 22.7358412]]]}}, {"type": "Feature", "properties": {"customer_hex_id": "CH-q-1_r0", "q": -1, "r": 0, "worker_hex_id": "WH-07", "centroid_lon": 75.8448984, "centroid_lat": 22.7442899, "area_inside_imc_km2": 2.255}, "geometry": {"type": "Polygon", "coordinates": [[[75.8527775, 22.7485142], [75.8448984, 22.7527385], [75.8370193, 22.7485142], [75.8370193, 22.7400656], [75.8448984, 22.7358412], [75.8527775, 22.7400656], [75.8527775, 22.7485142]]]}}, {"type": "Feature", "properties": {"customer_hex_id": "CH-q-1_r1", "q": -1, "r": 1, "worker_hex_id": "WH-07", "centroid_lon": 75.8527775, "centroid_lat": 22.7569628, "area_inside_imc_km2": 2.255}, "geometry": {"type": "Polygon", "coordinates": [[[75.8606566, 22.7611872], [75.8527775, 22.7654115], [75.8448984, 22.7611872], [75.8448984, 22.7527385], [75.8527775, 22.7485142], [75.8606566, 22.7527385], [75.8606566, 22.7611872]]]}}, {"type": "Feature", "properties": {"customer_hex_id": "CH-q-1_r2", "q": -1, "r": 2, "worker_hex_id": "WH-04", "centroid_lon": 75.8606566, "centroid_lat": 22.7696358, "area_inside_imc_km2": 2.269}, "geometry": {"type": "Polygon", "coordinates": [[[75.8685357, 22.7738601], [75.8606566, 22.7780845], [75.8527775, 22.7738601], [75.8527775, 22.7654115], [75.8606566, 22.7611872], [75.8685357, 22.7654115], [75.8685357, 22.7738601]]]}}, {"type": "Feature", "properties": {"customer_hex_id": "CH-q-1_r3", "q": -1, "r": 3, "worker_hex_id": "WH-04", "centroid_lon": 75.8685357, "centroid_lat": 22.7823088, "area_inside_imc_km2": 2.235}, "geometry": {"type": "Polygon", "coordinates": [[[75.8764148, 22.7865331], [75.8685357, 22.7907574], [75.8606566, 22.7865331], [75.8606566, 22.7780845], [75.8685357, 22.7738601], [75.8764148, 22.7780845], [75.8764148, 22.7865331]]]}}, {"type": "Feature", "properties": {"customer_hex_id": "CH-q-1_r4", "q": -1, "r": 4, "worker_hex_id": "WH-04", "centroid_lon": 75.8764148, "centroid_lat": 22.7949817, "area_inside_imc_km2": 0.534}, "geometry": {"type": "Polygon", "coordinates": [[[75.8842939, 22.7992061], [75.8764148, 22.8034304], [75.8685357, 22.7992061], [75.8685357, 22.7907574], [75.8764148, 22.7865331], [75.8842939, 22.7907574], [75.8842939, 22.7992061]]]}}, {"type": "Feature", "properties": {"customer_hex_id": "CH-q-1_r5", "q": -1, "r": 5, "worker_hex_id": "WH-04", "centroid_lon": 75.8842939, "centroid_lat": 22.8076547, "area_inside_imc_km2": 1.562}, "geometry": {"type": "Polygon", "coordinates": [[[75.892173, 22.811879], [75.8842939, 22.8161033], [75.8764148, 22.811879], [75.8764148, 22.8034304], [75.8842939, 22.7992061], [75.892173, 22.8034304], [75.892173, 22.811879]]]}}, {"type": "Feature", "properties": {"customer_hex_id": "CH-q0_r-7", "q": 0, "r": -7, "worker_hex_id": "WH-18", "centroid_lon": 75.8055029, "centroid_lat": 22.6555792, "area_inside_imc_km2": 0.688}, "geometry": {"type": "Polygon", "coordinates": [[[75.813382, 22.6598035], [75.8055029, 22.6640278], [75.7976238, 22.6598035], [75.7976238, 22.6513548], [75.8055029, 22.6471305], [75.813382, 22.6513548], [75.813382, 22.6598035]]]}}, {"type": "Feature", "properties": {"customer_hex_id": "CH-q0_r-6", "q": 0, "r": -6, "worker_hex_id": "WH-18", "centroid_lon": 75.813382, "centroid_lat": 22.6682521, "area_inside_imc_km2": 2.269}, "geometry": {"type": "Polygon", "coordinates": [[[75.8212611, 22.6724764], [75.813382, 22.6767008], [75.8055029, 22.6724764], [75.8055029, 22.6640278], [75.813382, 22.6598035], [75.8212611, 22.6640278], [75.8212611, 22.6724764]]]}}, {"type": "Feature", "properties": {"customer_hex_id": "CH-q0_r-5", "q": 0, "r": -5, "worker_hex_id": "WH-14", "centroid_lon": 75.8212611, "centroid_lat": 22.6809251, "area_inside_imc_km2": 2.269}, "geometry": {"type": "Polygon", "coordinates": [[[75.8291402, 22.6851494], [75.8212611, 22.6893737], [75.813382, 22.6851494], [75.813382, 22.6767008], [75.8212611, 22.6724764], [75.8291402, 22.6767008], [75.8291402, 22.6851494]]]}}, {"type": "Feature", "properties": {"customer_hex_id": "CH-q0_r-4", "q": 0, "r": -4, "worker_hex_id": "WH-14", "centroid_lon": 75.8291402, "centroid_lat": 22.693598, "area_inside_imc_km2": 2.269}, "geometry": {"type": "Polygon", "coordinates": [[[75.8370193, 22.6978224], [75.8291402, 22.7020467], [75.8212611, 22.6978224], [75.8212611, 22.6893737], [75.8291402, 22.6851494], [75.8370193, 22.6893737], [75.8370193, 22.6978224]]]}}, {"type": "Feature", "properties": {"customer_hex_id": "CH-q0_r-3", "q": 0, "r": -3, "worker_hex_id": "WH-10", "centroid_lon": 75.8370193, "centroid_lat": 22.706271, "area_inside_imc_km2": 2.269}, "geometry": {"type": "Polygon", "coordinates": [[[75.8448984, 22.7104953], [75.8370193, 22.7147196], [75.8291402, 22.7104953], [75.8291402, 22.7020467], [75.8370193, 22.6978224], [75.8448984, 22.7020467], [75.8448984, 22.7104953]]]}}, {"type": "Feature", "properties": {"customer_hex_id": "CH-q0_r-2", "q": 0, "r": -2, "worker_hex_id": "WH-10", "centroid_lon": 75.8448984, "centroid_lat": 22.718944, "area_inside_imc_km2": 2.255}, "geometry": {"type": "Polygon", "coordinates": [[[75.8527775, 22.7231683], [75.8448984, 22.7273926], [75.8370193, 22.7231683], [75.8370193, 22.7147196], [75.8448984, 22.7104953], [75.8527775, 22.7147196], [75.8527775, 22.7231683]]]}}, {"type": "Feature", "properties": {"customer_hex_id": "CH-q0_r-1", "q": 0, "r": -1, "worker_hex_id": "WH-07", "centroid_lon": 75.8527775, "centroid_lat": 22.7316169, "area_inside_imc_km2": 2.255}, "geometry": {"type": "Polygon", "coordinates": [[[75.8606566, 22.7358412], [75.8527775, 22.7400656], [75.8448984, 22.7358412], [75.8448984, 22.7273926], [75.8527775, 22.7231683], [75.8606566, 22.7273926], [75.8606566, 22.7358412]]]}}, {"type": "Feature", "properties": {"customer_hex_id": "CH-q0_r0", "q": 0, "r": 0, "worker_hex_id": "WH-07", "centroid_lon": 75.8606566, "centroid_lat": 22.7442899, "area_inside_imc_km2": 2.269}, "geometry": {"type": "Polygon", "coordinates": [[[75.8685357, 22.7485142], [75.8606566, 22.7527385], [75.8527775, 22.7485142], [75.8527775, 22.7400656], [75.8606566, 22.7358412], [75.8685357, 22.7400656], [75.8685357, 22.7485142]]]}}, {"type": "Feature", "properties": {"customer_hex_id": "CH-q0_r1", "q": 0, "r": 1, "worker_hex_id": "WH-07", "centroid_lon": 75.8685357, "centroid_lat": 22.7569628, "area_inside_imc_km2": 2.269}, "geometry": {"type": "Polygon", "coordinates": [[[75.8764148, 22.7611872], [75.8685357, 22.7654115], [75.8606566, 22.7611872], [75.8606566, 22.7527385], [75.8685357, 22.7485142], [75.8764148, 22.7527385], [75.8764148, 22.7611872]]]}}, {"type": "Feature", "properties": {"customer_hex_id": "CH-q0_r2", "q": 0, "r": 2, "worker_hex_id": "WH-04", "centroid_lon": 75.8764148, "centroid_lat": 22.7696358, "area_inside_imc_km2": 2.269}, "geometry": {"type": "Polygon", "coordinates": [[[75.8842939, 22.7738601], [75.8764148, 22.7780845], [75.8685357, 22.7738601], [75.8685357, 22.7654115], [75.8764148, 22.7611872], [75.8842939, 22.7654115], [75.8842939, 22.7738601]]]}}, {"type": "Feature", "properties": {"customer_hex_id": "CH-q0_r3", "q": 0, "r": 3, "worker_hex_id": "WH-04", "centroid_lon": 75.8842939, "centroid_lat": 22.7823088, "area_inside_imc_km2": 2.184}, "geometry": {"type": "Polygon", "coordinates": [[[75.892173, 22.7865331], [75.8842939, 22.7907574], [75.8764148, 22.7865331], [75.8764148, 22.7780845], [75.8842939, 22.7738601], [75.892173, 22.7780845], [75.892173, 22.7865331]]]}}, {"type": "Feature", "properties": {"customer_hex_id": "CH-q0_r4", "q": 0, "r": 4, "worker_hex_id": "WH-04", "centroid_lon": 75.892173, "centroid_lat": 22.7949817, "area_inside_imc_km2": 0.407}, "geometry": {"type": "Polygon", "coordinates": [[[75.9000521, 22.7992061], [75.892173, 22.8034304], [75.8842939, 22.7992061], [75.8842939, 22.7907574], [75.892173, 22.7865331], [75.9000521, 22.7907574], [75.9000521, 22.7992061]]]}}, {"type": "Feature", "properties": {"customer_hex_id": "CH-q0_r5", "q": 0, "r": 5, "worker_hex_id": "WH-02", "centroid_lon": 75.9000521, "centroid_lat": 22.8076547, "area_inside_imc_km2": 0.43}, "geometry": {"type": "Polygon", "coordinates": [[[75.9079312, 22.811879], [75.9000521, 22.8161033], [75.892173, 22.811879], [75.892173, 22.8034304], [75.9000521, 22.7992061], [75.9079312, 22.8034304], [75.9079312, 22.811879]]]}}, {"type": "Feature", "properties": {"customer_hex_id": "CH-q1_r-7", "q": 1, "r": -7, "worker_hex_id": "WH-18", "centroid_lon": 75.8212611, "centroid_lat": 22.6555792, "area_inside_imc_km2": 2.179}, "geometry": {"type": "Polygon", "coordinates": [[[75.8291402, 22.6598035], [75.8212611, 22.6640278], [75.813382, 22.6598035], [75.813382, 22.6513548], [75.8212611, 22.6471305], [75.8291402, 22.6513548], [75.8291402, 22.6598035]]]}}, {"type": "Feature", "properties": {"customer_hex_id": "CH-q1_r-6", "q": 1, "r": -6, "worker_hex_id": "WH-17", "centroid_lon": 75.8291402, "centroid_lat": 22.6682521, "area_inside_imc_km2": 2.269}, "geometry": {"type": "Polygon", "coordinates": [[[75.8370193, 22.6724764], [75.8291402, 22.6767008], [75.8212611, 22.6724764], [75.8212611, 22.6640278], [75.8291402, 22.6598035], [75.8370193, 22.6640278], [75.8370193, 22.6724764]]]}}, {"type": "Feature", "properties": {"customer_hex_id": "CH-q1_r-5", "q": 1, "r": -5, "worker_hex_id": "WH-17", "centroid_lon": 75.8370193, "centroid_lat": 22.6809251, "area_inside_imc_km2": 2.269}, "geometry": {"type": "Polygon", "coordinates": [[[75.8448984, 22.6851494], [75.8370193, 22.6893737], [75.8291402, 22.6851494], [75.8291402, 22.6767008], [75.8370193, 22.6724764], [75.8448984, 22.6767008], [75.8448984, 22.6851494]]]}}, {"type": "Feature", "properties": {"customer_hex_id": "CH-q1_r-4", "q": 1, "r": -4, "worker_hex_id": "WH-10", "centroid_lon": 75.8448984, "centroid_lat": 22.693598, "area_inside_imc_km2": 2.255}, "geometry": {"type": "Polygon", "coordinates": [[[75.8527775, 22.6978224], [75.8448984, 22.7020467], [75.8370193, 22.6978224], [75.8370193, 22.6893737], [75.8448984, 22.6851494], [75.8527775, 22.6893737], [75.8527775, 22.6978224]]]}}, {"type": "Feature", "properties": {"customer_hex_id": "CH-q1_r-3", "q": 1, "r": -3, "worker_hex_id": "WH-10", "centroid_lon": 75.8527775, "centroid_lat": 22.706271, "area_inside_imc_km2": 2.255}, "geometry": {"type": "Polygon", "coordinates": [[[75.8606566, 22.7104953], [75.8527775, 22.7147196], [75.8448984, 22.7104953], [75.8448984, 22.7020467], [75.8527775, 22.6978224], [75.8606566, 22.7020467], [75.8606566, 22.7104953]]]}}, {"type": "Feature", "properties": {"customer_hex_id": "CH-q1_r-2", "q": 1, "r": -2, "worker_hex_id": "WH-10", "centroid_lon": 75.8606566, "centroid_lat": 22.718944, "area_inside_imc_km2": 2.269}, "geometry": {"type": "Polygon", "coordinates": [[[75.8685357, 22.7231683], [75.8606566, 22.7273926], [75.8527775, 22.7231683], [75.8527775, 22.7147196], [75.8606566, 22.7104953], [75.8685357, 22.7147196], [75.8685357, 22.7231683]]]}}, {"type": "Feature", "properties": {"customer_hex_id": "CH-q1_r-1", "q": 1, "r": -1, "worker_hex_id": "WH-07", "centroid_lon": 75.8685357, "centroid_lat": 22.7316169, "area_inside_imc_km2": 2.269}, "geometry": {"type": "Polygon", "coordinates": [[[75.8764148, 22.7358412], [75.8685357, 22.7400656], [75.8606566, 22.7358412], [75.8606566, 22.7273926], [75.8685357, 22.7231683], [75.8764148, 22.7273926], [75.8764148, 22.7358412]]]}}, {"type": "Feature", "properties": {"customer_hex_id": "CH-q1_r0", "q": 1, "r": 0, "worker_hex_id": "WH-07", "centroid_lon": 75.8764148, "centroid_lat": 22.7442899, "area_inside_imc_km2": 2.269}, "geometry": {"type": "Polygon", "coordinates": [[[75.8842939, 22.7485142], [75.8764148, 22.7527385], [75.8685357, 22.7485142], [75.8685357, 22.7400656], [75.8764148, 22.7358412], [75.8842939, 22.7400656], [75.8842939, 22.7485142]]]}}, {"type": "Feature", "properties": {"customer_hex_id": "CH-q1_r1", "q": 1, "r": 1, "worker_hex_id": "WH-08", "centroid_lon": 75.8842939, "centroid_lat": 22.7569628, "area_inside_imc_km2": 2.269}, "geometry": {"type": "Polygon", "coordinates": [[[75.892173, 22.7611872], [75.8842939, 22.7654115], [75.8764148, 22.7611872], [75.8764148, 22.7527385], [75.8842939, 22.7485142], [75.892173, 22.7527385], [75.892173, 22.7611872]]]}}, {"type": "Feature", "properties": {"customer_hex_id": "CH-q1_r2", "q": 1, "r": 2, "worker_hex_id": "WH-08", "centroid_lon": 75.892173, "centroid_lat": 22.7696358, "area_inside_imc_km2": 2.269}, "geometry": {"type": "Polygon", "coordinates": [[[75.9000521, 22.7738601], [75.892173, 22.7780845], [75.8842939, 22.7738601], [75.8842939, 22.7654115], [75.892173, 22.7611872], [75.9000521, 22.7654115], [75.9000521, 22.7738601]]]}}, {"type": "Feature", "properties": {"customer_hex_id": "CH-q1_r3", "q": 1, "r": 3, "worker_hex_id": "WH-02", "centroid_lon": 75.9000521, "centroid_lat": 22.7823088, "area_inside_imc_km2": 2.237}, "geometry": {"type": "Polygon", "coordinates": [[[75.9079312, 22.7865331], [75.9000521, 22.7907574], [75.892173, 22.7865331], [75.892173, 22.7780845], [75.9000521, 22.7738601], [75.9079312, 22.7780845], [75.9079312, 22.7865331]]]}}, {"type": "Feature", "properties": {"customer_hex_id": "CH-q1_r4", "q": 1, "r": 4, "worker_hex_id": "WH-02", "centroid_lon": 75.9079312, "centroid_lat": 22.7949817, "area_inside_imc_km2": 2.14}, "geometry": {"type": "Polygon", "coordinates": [[[75.9158103, 22.7992061], [75.9079312, 22.8034304], [75.9000521, 22.7992061], [75.9000521, 22.7907574], [75.9079312, 22.7865331], [75.9158103, 22.7907574], [75.9158103, 22.7992061]]]}}, {"type": "Feature", "properties": {"customer_hex_id": "CH-q1_r5", "q": 1, "r": 5, "worker_hex_id": "WH-02", "centroid_lon": 75.9158103, "centroid_lat": 22.8076547, "area_inside_imc_km2": 0.851}, "geometry": {"type": "Polygon", "coordinates": [[[75.9236894, 22.811879], [75.9158103, 22.8161033], [75.9079312, 22.811879], [75.9079312, 22.8034304], [75.9158103, 22.7992061], [75.9236894, 22.8034304], [75.9236894, 22.811879]]]}}, {"type": "Feature", "properties": {"customer_hex_id": "CH-q2_r-8", "q": 2, "r": -8, "worker_hex_id": "WH-18", "centroid_lon": 75.8291402, "centroid_lat": 22.6429062, "area_inside_imc_km2": 1.52}, "geometry": {"type": "Polygon", "coordinates": [[[75.8370193, 22.6471305], [75.8291402, 22.6513548], [75.8212611, 22.6471305], [75.8212611, 22.6386819], [75.8291402, 22.6344576], [75.8370193, 22.6386819], [75.8370193, 22.6471305]]]}}, {"type": "Feature", "properties": {"customer_hex_id": "CH-q2_r-7", "q": 2, "r": -7, "worker_hex_id": "WH-17", "centroid_lon": 75.8370193, "centroid_lat": 22.6555792, "area_inside_imc_km2": 2.269}, "geometry": {"type": "Polygon", "coordinates": [[[75.8448984, 22.6598035], [75.8370193, 22.6640278], [75.8291402, 22.6598035], [75.8291402, 22.6513548], [75.8370193, 22.6471305], [75.8448984, 22.6513548], [75.8448984, 22.6598035]]]}}, {"type": "Feature", "properties": {"customer_hex_id": "CH-q2_r-6", "q": 2, "r": -6, "worker_hex_id": "WH-17", "centroid_lon": 75.8448984, "centroid_lat": 22.6682521, "area_inside_imc_km2": 2.255}, "geometry": {"type": "Polygon", "coordinates": [[[75.8527775, 22.6724764], [75.8448984, 22.6767008], [75.8370193, 22.6724764], [75.8370193, 22.6640278], [75.8448984, 22.6598035], [75.8527775, 22.6640278], [75.8527775, 22.6724764]]]}}, {"type": "Feature", "properties": {"customer_hex_id": "CH-q2_r-5", "q": 2, "r": -5, "worker_hex_id": "WH-17", "centroid_lon": 75.8527775, "centroid_lat": 22.6809251, "area_inside_imc_km2": 2.255}, "geometry": {"type": "Polygon", "coordinates": [[[75.8606566, 22.6851494], [75.8527775, 22.6893737], [75.8448984, 22.6851494], [75.8448984, 22.6767008], [75.8527775, 22.6724764], [75.8606566, 22.6767008], [75.8606566, 22.6851494]]]}}, {"type": "Feature", "properties": {"customer_hex_id": "CH-q2_r-4", "q": 2, "r": -4, "worker_hex_id": "WH-10", "centroid_lon": 75.8606566, "centroid_lat": 22.693598, "area_inside_imc_km2": 2.269}, "geometry": {"type": "Polygon", "coordinates": [[[75.8685357, 22.6978224], [75.8606566, 22.7020467], [75.8527775, 22.6978224], [75.8527775, 22.6893737], [75.8606566, 22.6851494], [75.8685357, 22.6893737], [75.8685357, 22.6978224]]]}}, {"type": "Feature", "properties": {"customer_hex_id": "CH-q2_r-3", "q": 2, "r": -3, "worker_hex_id": "WH-10", "centroid_lon": 75.8685357, "centroid_lat": 22.706271, "area_inside_imc_km2": 2.269}, "geometry": {"type": "Polygon", "coordinates": [[[75.8764148, 22.7104953], [75.8685357, 22.7147196], [75.8606566, 22.7104953], [75.8606566, 22.7020467], [75.8685357, 22.6978224], [75.8764148, 22.7020467], [75.8764148, 22.7104953]]]}}, {"type": "Feature", "properties": {"customer_hex_id": "CH-q2_r-2", "q": 2, "r": -2, "worker_hex_id": "WH-11", "centroid_lon": 75.8764148, "centroid_lat": 22.718944, "area_inside_imc_km2": 2.269}, "geometry": {"type": "Polygon", "coordinates": [[[75.8842939, 22.7231683], [75.8764148, 22.7273926], [75.8685357, 22.7231683], [75.8685357, 22.7147196], [75.8764148, 22.7104953], [75.8842939, 22.7147196], [75.8842939, 22.7231683]]]}}, {"type": "Feature", "properties": {"customer_hex_id": "CH-q2_r-1", "q": 2, "r": -1, "worker_hex_id": "WH-11", "centroid_lon": 75.8842939, "centroid_lat": 22.7316169, "area_inside_imc_km2": 2.269}, "geometry": {"type": "Polygon", "coordinates": [[[75.892173, 22.7358412], [75.8842939, 22.7400656], [75.8764148, 22.7358412], [75.8764148, 22.7273926], [75.8842939, 22.7231683], [75.892173, 22.7273926], [75.892173, 22.7358412]]]}}, {"type": "Feature", "properties": {"customer_hex_id": "CH-q2_r0", "q": 2, "r": 0, "worker_hex_id": "WH-08", "centroid_lon": 75.892173, "centroid_lat": 22.7442899, "area_inside_imc_km2": 2.269}, "geometry": {"type": "Polygon", "coordinates": [[[75.9000521, 22.7485142], [75.892173, 22.7527385], [75.8842939, 22.7485142], [75.8842939, 22.7400656], [75.892173, 22.7358412], [75.9000521, 22.7400656], [75.9000521, 22.7485142]]]}}, {"type": "Feature", "properties": {"customer_hex_id": "CH-q2_r1", "q": 2, "r": 1, "worker_hex_id": "WH-08", "centroid_lon": 75.9000521, "centroid_lat": 22.7569628, "area_inside_imc_km2": 2.269}, "geometry": {"type": "Polygon", "coordinates": [[[75.9079312, 22.7611872], [75.9000521, 22.7654115], [75.892173, 22.7611872], [75.892173, 22.7527385], [75.9000521, 22.7485142], [75.9079312, 22.7527385], [75.9079312, 22.7611872]]]}}, {"type": "Feature", "properties": {"customer_hex_id": "CH-q2_r2", "q": 2, "r": 2, "worker_hex_id": "WH-08", "centroid_lon": 75.9079312, "centroid_lat": 22.7696358, "area_inside_imc_km2": 2.269}, "geometry": {"type": "Polygon", "coordinates": [[[75.9158103, 22.7738601], [75.9079312, 22.7780845], [75.9000521, 22.7738601], [75.9000521, 22.7654115], [75.9079312, 22.7611872], [75.9158103, 22.7654115], [75.9158103, 22.7738601]]]}}, {"type": "Feature", "properties": {"customer_hex_id": "CH-q2_r3", "q": 2, "r": 3, "worker_hex_id": "WH-02", "centroid_lon": 75.9158103, "centroid_lat": 22.7823088, "area_inside_imc_km2": 2.269}, "geometry": {"type": "Polygon", "coordinates": [[[75.9236894, 22.7865331], [75.9158103, 22.7907574], [75.9079312, 22.7865331], [75.9079312, 22.7780845], [75.9158103, 22.7738601], [75.9236894, 22.7780845], [75.9236894, 22.7865331]]]}}, {"type": "Feature", "properties": {"customer_hex_id": "CH-q2_r4", "q": 2, "r": 4, "worker_hex_id": "WH-02", "centroid_lon": 75.9236894, "centroid_lat": 22.7949817, "area_inside_imc_km2": 2.226}, "geometry": {"type": "Polygon", "coordinates": [[[75.9315685, 22.7992061], [75.9236894, 22.8034304], [75.9158103, 22.7992061], [75.9158103, 22.7907574], [75.9236894, 22.7865331], [75.9315685, 22.7907574], [75.9315685, 22.7992061]]]}}, {"type": "Feature", "properties": {"customer_hex_id": "CH-q2_r5", "q": 2, "r": 5, "worker_hex_id": "WH-02", "centroid_lon": 75.9315685, "centroid_lat": 22.8076547, "area_inside_imc_km2": 0.375}, "geometry": {"type": "Polygon", "coordinates": [[[75.9394476, 22.811879], [75.9315685, 22.8161033], [75.9236894, 22.811879], [75.9236894, 22.8034304], [75.9315685, 22.7992061], [75.9394476, 22.8034304], [75.9394476, 22.811879]]]}}, {"type": "Feature", "properties": {"customer_hex_id": "CH-q3_r-9", "q": 3, "r": -9, "worker_hex_id": "WH-18", "centroid_lon": 75.8370193, "centroid_lat": 22.6302332, "area_inside_imc_km2": 1.078}, "geometry": {"type": "Polygon", "coordinates": [[[75.8448984, 22.6344576], [75.8370193, 22.6386819], [75.8291402, 22.6344576], [75.8291402, 22.6260089], [75.8370193, 22.6217846], [75.8448984, 22.6260089], [75.8448984, 22.6344576]]]}}, {"type": "Feature", "properties": {"customer_hex_id": "CH-q3_r-8", "q": 3, "r": -8, "worker_hex_id": "WH-18", "centroid_lon": 75.8448984, "centroid_lat": 22.6429062, "area_inside_imc_km2": 2.255}, "geometry": {"type": "Polygon", "coordinates": [[[75.8527775, 22.6471305], [75.8448984, 22.6513548], [75.8370193, 22.6471305], [75.8370193, 22.6386819], [75.8448984, 22.6344576], [75.8527775, 22.6386819], [75.8527775, 22.6471305]]]}}, {"type": "Feature", "properties": {"customer_hex_id": "CH-q3_r-7", "q": 3, "r": -7, "worker_hex_id": "WH-17", "centroid_lon": 75.8527775, "centroid_lat": 22.6555792, "area_inside_imc_km2": 2.255}, "geometry": {"type": "Polygon", "coordinates": [[[75.8606566, 22.6598035], [75.8527775, 22.6640278], [75.8448984, 22.6598035], [75.8448984, 22.6513548], [75.8527775, 22.6471305], [75.8606566, 22.6513548], [75.8606566, 22.6598035]]]}}, {"type": "Feature", "properties": {"customer_hex_id": "CH-q3_r-6", "q": 3, "r": -6, "worker_hex_id": "WH-17", "centroid_lon": 75.8606566, "centroid_lat": 22.6682521, "area_inside_imc_km2": 2.269}, "geometry": {"type": "Polygon", "coordinates": [[[75.8685357, 22.6724764], [75.8606566, 22.6767008], [75.8527775, 22.6724764], [75.8527775, 22.6640278], [75.8606566, 22.6598035], [75.8685357, 22.6640278], [75.8685357, 22.6724764]]]}}, {"type": "Feature", "properties": {"customer_hex_id": "CH-q3_r-5", "q": 3, "r": -5, "worker_hex_id": "WH-15", "centroid_lon": 75.8685357, "centroid_lat": 22.6809251, "area_inside_imc_km2": 2.269}, "geometry": {"type": "Polygon", "coordinates": [[[75.8764148, 22.6851494], [75.8685357, 22.6893737], [75.8606566, 22.6851494], [75.8606566, 22.6767008], [75.8685357, 22.6724764], [75.8764148, 22.6767008], [75.8764148, 22.6851494]]]}}, {"type": "Feature", "properties": {"customer_hex_id": "CH-q3_r-4", "q": 3, "r": -4, "worker_hex_id": "WH-15", "centroid_lon": 75.8764148, "centroid_lat": 22.693598, "area_inside_imc_km2": 2.269}, "geometry": {"type": "Polygon", "coordinates": [[[75.8842939, 22.6978224], [75.8764148, 22.7020467], [75.8685357, 22.6978224], [75.8685357, 22.6893737], [75.8764148, 22.6851494], [75.8842939, 22.6893737], [75.8842939, 22.6978224]]]}}, {"type": "Feature", "properties": {"customer_hex_id": "CH-q3_r-3", "q": 3, "r": -3, "worker_hex_id": "WH-11", "centroid_lon": 75.8842939, "centroid_lat": 22.706271, "area_inside_imc_km2": 2.269}, "geometry": {"type": "Polygon", "coordinates": [[[75.892173, 22.7104953], [75.8842939, 22.7147196], [75.8764148, 22.7104953], [75.8764148, 22.7020467], [75.8842939, 22.6978224], [75.892173, 22.7020467], [75.892173, 22.7104953]]]}}, {"type": "Feature", "properties": {"customer_hex_id": "CH-q3_r-2", "q": 3, "r": -2, "worker_hex_id": "WH-11", "centroid_lon": 75.892173, "centroid_lat": 22.718944, "area_inside_imc_km2": 2.269}, "geometry": {"type": "Polygon", "coordinates": [[[75.9000521, 22.7231683], [75.892173, 22.7273926], [75.8842939, 22.7231683], [75.8842939, 22.7147196], [75.892173, 22.7104953], [75.9000521, 22.7147196], [75.9000521, 22.7231683]]]}}, {"type": "Feature", "properties": {"customer_hex_id": "CH-q3_r-1", "q": 3, "r": -1, "worker_hex_id": "WH-11", "centroid_lon": 75.9000521, "centroid_lat": 22.7316169, "area_inside_imc_km2": 2.269}, "geometry": {"type": "Polygon", "coordinates": [[[75.9079312, 22.7358412], [75.9000521, 22.7400656], [75.892173, 22.7358412], [75.892173, 22.7273926], [75.9000521, 22.7231683], [75.9079312, 22.7273926], [75.9079312, 22.7358412]]]}}, {"type": "Feature", "properties": {"customer_hex_id": "CH-q3_r0", "q": 3, "r": 0, "worker_hex_id": "WH-08", "centroid_lon": 75.9079312, "centroid_lat": 22.7442899, "area_inside_imc_km2": 2.269}, "geometry": {"type": "Polygon", "coordinates": [[[75.9158103, 22.7485142], [75.9079312, 22.7527385], [75.9000521, 22.7485142], [75.9000521, 22.7400656], [75.9079312, 22.7358412], [75.9158103, 22.7400656], [75.9158103, 22.7485142]]]}}, {"type": "Feature", "properties": {"customer_hex_id": "CH-q3_r1", "q": 3, "r": 1, "worker_hex_id": "WH-08", "centroid_lon": 75.9158103, "centroid_lat": 22.7569628, "area_inside_imc_km2": 2.27}, "geometry": {"type": "Polygon", "coordinates": [[[75.9236894, 22.7611872], [75.9158103, 22.7654115], [75.9079312, 22.7611872], [75.9079312, 22.7527385], [75.9158103, 22.7485142], [75.9236894, 22.7527385], [75.9236894, 22.7611872]]]}}, {"type": "Feature", "properties": {"customer_hex_id": "CH-q3_r2", "q": 3, "r": 2, "worker_hex_id": "WH-05", "centroid_lon": 75.9236894, "centroid_lat": 22.7696358, "area_inside_imc_km2": 2.269}, "geometry": {"type": "Polygon", "coordinates": [[[75.9315685, 22.7738601], [75.9236894, 22.7780845], [75.9158103, 22.7738601], [75.9158103, 22.7654115], [75.9236894, 22.7611872], [75.9315685, 22.7654115], [75.9315685, 22.7738601]]]}}, {"type": "Feature", "properties": {"customer_hex_id": "CH-q3_r3", "q": 3, "r": 3, "worker_hex_id": "WH-05", "centroid_lon": 75.9315685, "centroid_lat": 22.7823088, "area_inside_imc_km2": 2.269}, "geometry": {"type": "Polygon", "coordinates": [[[75.9394476, 22.7865331], [75.9315685, 22.7907574], [75.9236894, 22.7865331], [75.9236894, 22.7780845], [75.9315685, 22.7738601], [75.9394476, 22.7780845], [75.9394476, 22.7865331]]]}}, {"type": "Feature", "properties": {"customer_hex_id": "CH-q3_r4", "q": 3, "r": 4, "worker_hex_id": "WH-02", "centroid_lon": 75.9394476, "centroid_lat": 22.7949817, "area_inside_imc_km2": 2.131}, "geometry": {"type": "Polygon", "coordinates": [[[75.9473267, 22.7992061], [75.9394476, 22.8034304], [75.9315685, 22.7992061], [75.9315685, 22.7907574], [75.9394476, 22.7865331], [75.9473267, 22.7907574], [75.9473267, 22.7992061]]]}}, {"type": "Feature", "properties": {"customer_hex_id": "CH-q3_r5", "q": 3, "r": 5, "worker_hex_id": "WH-02", "centroid_lon": 75.9473267, "centroid_lat": 22.8076547, "area_inside_imc_km2": 0.135}, "geometry": {"type": "Polygon", "coordinates": [[[75.9552058, 22.811879], [75.9473267, 22.8161033], [75.9394476, 22.811879], [75.9394476, 22.8034304], [75.9473267, 22.7992061], [75.9552058, 22.8034304], [75.9552058, 22.811879]]]}}, {"type": "Feature", "properties": {"customer_hex_id": "CH-q4_r-9", "q": 4, "r": -9, "worker_hex_id": "WH-18", "centroid_lon": 75.8527775, "centroid_lat": 22.6302332, "area_inside_imc_km2": 1.35}, "geometry": {"type": "Polygon", "coordinates": [[[75.8606566, 22.6344576], [75.8527775, 22.6386819], [75.8448984, 22.6344576], [75.8448984, 22.6260089], [75.8527775, 22.6217846], [75.8606566, 22.6260089], [75.8606566, 22.6344576]]]}}, {"type": "Feature", "properties": {"customer_hex_id": "CH-q4_r-8", "q": 4, "r": -8, "worker_hex_id": "WH-19", "centroid_lon": 75.8606566, "centroid_lat": 22.6429062, "area_inside_imc_km2": 2.269}, "geometry": {"type": "Polygon", "coordinates": [[[75.8685357, 22.6471305], [75.8606566, 22.6513548], [75.8527775, 22.6471305], [75.8527775, 22.6386819], [75.8606566, 22.6344576], [75.8685357, 22.6386819], [75.8685357, 22.6471305]]]}}, {"type": "Feature", "properties": {"customer_hex_id": "CH-q4_r-7", "q": 4, "r": -7, "worker_hex_id": "WH-19", "centroid_lon": 75.8685357, "centroid_lat": 22.6555792, "area_inside_imc_km2": 2.27}, "geometry": {"type": "Polygon", "coordinates": [[[75.8764148, 22.6598035], [75.8685357, 22.6640278], [75.8606566, 22.6598035], [75.8606566, 22.6513548], [75.8685357, 22.6471305], [75.8764148, 22.6513548], [75.8764148, 22.6598035]]]}}, {"type": "Feature", "properties": {"customer_hex_id": "CH-q4_r-6", "q": 4, "r": -6, "worker_hex_id": "WH-15", "centroid_lon": 75.8764148, "centroid_lat": 22.6682521, "area_inside_imc_km2": 2.27}, "geometry": {"type": "Polygon", "coordinates": [[[75.8842939, 22.6724764], [75.8764148, 22.6767008], [75.8685357, 22.6724764], [75.8685357, 22.6640278], [75.8764148, 22.6598035], [75.8842939, 22.6640278], [75.8842939, 22.6724764]]]}}, {"type": "Feature", "properties": {"customer_hex_id": "CH-q4_r-5", "q": 4, "r": -5, "worker_hex_id": "WH-15", "centroid_lon": 75.8842939, "centroid_lat": 22.6809251, "area_inside_imc_km2": 2.269}, "geometry": {"type": "Polygon", "coordinates": [[[75.892173, 22.6851494], [75.8842939, 22.6893737], [75.8764148, 22.6851494], [75.8764148, 22.6767008], [75.8842939, 22.6724764], [75.892173, 22.6767008], [75.892173, 22.6851494]]]}}, {"type": "Feature", "properties": {"customer_hex_id": "CH-q4_r-4", "q": 4, "r": -4, "worker_hex_id": "WH-15", "centroid_lon": 75.892173, "centroid_lat": 22.693598, "area_inside_imc_km2": 2.269}, "geometry": {"type": "Polygon", "coordinates": [[[75.9000521, 22.6978224], [75.892173, 22.7020467], [75.8842939, 22.6978224], [75.8842939, 22.6893737], [75.892173, 22.6851494], [75.9000521, 22.6893737], [75.9000521, 22.6978224]]]}}, {"type": "Feature", "properties": {"customer_hex_id": "CH-q4_r-3", "q": 4, "r": -3, "worker_hex_id": "WH-11", "centroid_lon": 75.9000521, "centroid_lat": 22.706271, "area_inside_imc_km2": 2.269}, "geometry": {"type": "Polygon", "coordinates": [[[75.9079312, 22.7104953], [75.9000521, 22.7147196], [75.892173, 22.7104953], [75.892173, 22.7020467], [75.9000521, 22.6978224], [75.9079312, 22.7020467], [75.9079312, 22.7104953]]]}}, {"type": "Feature", "properties": {"customer_hex_id": "CH-q4_r-2", "q": 4, "r": -2, "worker_hex_id": "WH-11", "centroid_lon": 75.9079312, "centroid_lat": 22.718944, "area_inside_imc_km2": 2.269}, "geometry": {"type": "Polygon", "coordinates": [[[75.9158103, 22.7231683], [75.9079312, 22.7273926], [75.9000521, 22.7231683], [75.9000521, 22.7147196], [75.9079312, 22.7104953], [75.9158103, 22.7147196], [75.9158103, 22.7231683]]]}}, {"type": "Feature", "properties": {"customer_hex_id": "CH-q4_r-1", "q": 4, "r": -1, "worker_hex_id": "WH-12", "centroid_lon": 75.9158103, "centroid_lat": 22.7316169, "area_inside_imc_km2": 2.27}, "geometry": {"type": "Polygon", "coordinates": [[[75.9236894, 22.7358412], [75.9158103, 22.7400656], [75.9079312, 22.7358412], [75.9079312, 22.7273926], [75.9158103, 22.7231683], [75.9236894, 22.7273926], [75.9236894, 22.7358412]]]}}, {"type": "Feature", "properties": {"customer_hex_id": "CH-q4_r0", "q": 4, "r": 0, "worker_hex_id": "WH-12", "centroid_lon": 75.9236894, "centroid_lat": 22.7442899, "area_inside_imc_km2": 2.269}, "geometry": {"type": "Polygon", "coordinates": [[[75.9315685, 22.7485142], [75.9236894, 22.7527385], [75.9158103, 22.7485142], [75.9158103, 22.7400656], [75.9236894, 22.7358412], [75.9315685, 22.7400656], [75.9315685, 22.7485142]]]}}, {"type": "Feature", "properties": {"customer_hex_id": "CH-q4_r1", "q": 4, "r": 1, "worker_hex_id": "WH-05", "centroid_lon": 75.9315685, "centroid_lat": 22.7569628, "area_inside_imc_km2": 2.269}, "geometry": {"type": "Polygon", "coordinates": [[[75.9394476, 22.7611872], [75.9315685, 22.7654115], [75.9236894, 22.7611872], [75.9236894, 22.7527385], [75.9315685, 22.7485142], [75.9394476, 22.7527385], [75.9394476, 22.7611872]]]}}, {"type": "Feature", "properties": {"customer_hex_id": "CH-q4_r2", "q": 4, "r": 2, "worker_hex_id": "WH-05", "centroid_lon": 75.9394476, "centroid_lat": 22.7696358, "area_inside_imc_km2": 1.919}, "geometry": {"type": "Polygon", "coordinates": [[[75.9473267, 22.7738601], [75.9394476, 22.7780845], [75.9315685, 22.7738601], [75.9315685, 22.7654115], [75.9394476, 22.7611872], [75.9473267, 22.7654115], [75.9473267, 22.7738601]]]}}, {"type": "Feature", "properties": {"customer_hex_id": "CH-q4_r3", "q": 4, "r": 3, "worker_hex_id": "WH-05", "centroid_lon": 75.9473267, "centroid_lat": 22.7823088, "area_inside_imc_km2": 0.823}, "geometry": {"type": "Polygon", "coordinates": [[[75.9552058, 22.7865331], [75.9473267, 22.7907574], [75.9394476, 22.7865331], [75.9394476, 22.7780845], [75.9473267, 22.7738601], [75.9552058, 22.7780845], [75.9552058, 22.7865331]]]}}, {"type": "Feature", "properties": {"customer_hex_id": "CH-q5_r-9", "q": 5, "r": -9, "worker_hex_id": "WH-19", "centroid_lon": 75.8685357, "centroid_lat": 22.6302332, "area_inside_imc_km2": 1.35}, "geometry": {"type": "Polygon", "coordinates": [[[75.8764148, 22.6344576], [75.8685357, 22.6386819], [75.8606566, 22.6344576], [75.8606566, 22.6260089], [75.8685357, 22.6217846], [75.8764148, 22.6260089], [75.8764148, 22.6344576]]]}}, {"type": "Feature", "properties": {"customer_hex_id": "CH-q5_r-8", "q": 5, "r": -8, "worker_hex_id": "WH-19", "centroid_lon": 75.8764148, "centroid_lat": 22.6429062, "area_inside_imc_km2": 2.269}, "geometry": {"type": "Polygon", "coordinates": [[[75.8842939, 22.6471305], [75.8764148, 22.6513548], [75.8685357, 22.6471305], [75.8685357, 22.6386819], [75.8764148, 22.6344576], [75.8842939, 22.6386819], [75.8842939, 22.6471305]]]}}, {"type": "Feature", "properties": {"customer_hex_id": "CH-q5_r-7", "q": 5, "r": -7, "worker_hex_id": "WH-19", "centroid_lon": 75.8842939, "centroid_lat": 22.6555792, "area_inside_imc_km2": 1.838}, "geometry": {"type": "Polygon", "coordinates": [[[75.892173, 22.6598035], [75.8842939, 22.6640278], [75.8764148, 22.6598035], [75.8764148, 22.6513548], [75.8842939, 22.6471305], [75.892173, 22.6513548], [75.892173, 22.6598035]]]}}, {"type": "Feature", "properties": {"customer_hex_id": "CH-q5_r-6", "q": 5, "r": -6, "worker_hex_id": "WH-15", "centroid_lon": 75.892173, "centroid_lat": 22.6682521, "area_inside_imc_km2": 2.27}, "geometry": {"type": "Polygon", "coordinates": [[[75.9000521, 22.6724764], [75.892173, 22.6767008], [75.8842939, 22.6724764], [75.8842939, 22.6640278], [75.892173, 22.6598035], [75.9000521, 22.6640278], [75.9000521, 22.6724764]]]}}, {"type": "Feature", "properties": {"customer_hex_id": "CH-q5_r-5", "q": 5, "r": -5, "worker_hex_id": "WH-15", "centroid_lon": 75.9000521, "centroid_lat": 22.6809251, "area_inside_imc_km2": 2.269}, "geometry": {"type": "Polygon", "coordinates": [[[75.9079312, 22.6851494], [75.9000521, 22.6893737], [75.892173, 22.6851494], [75.892173, 22.6767008], [75.9000521, 22.6724764], [75.9079312, 22.6767008], [75.9079312, 22.6851494]]]}}, {"type": "Feature", "properties": {"customer_hex_id": "CH-q5_r-4", "q": 5, "r": -4, "worker_hex_id": "WH-16", "centroid_lon": 75.9079312, "centroid_lat": 22.693598, "area_inside_imc_km2": 2.269}, "geometry": {"type": "Polygon", "coordinates": [[[75.9158103, 22.6978224], [75.9079312, 22.7020467], [75.9000521, 22.6978224], [75.9000521, 22.6893737], [75.9079312, 22.6851494], [75.9158103, 22.6893737], [75.9158103, 22.6978224]]]}}, {"type": "Feature", "properties": {"customer_hex_id": "CH-q5_r-3", "q": 5, "r": -3, "worker_hex_id": "WH-16", "centroid_lon": 75.9158103, "centroid_lat": 22.706271, "area_inside_imc_km2": 2.269}, "geometry": {"type": "Polygon", "coordinates": [[[75.9236894, 22.7104953], [75.9158103, 22.7147196], [75.9079312, 22.7104953], [75.9079312, 22.7020467], [75.9158103, 22.6978224], [75.9236894, 22.7020467], [75.9236894, 22.7104953]]]}}, {"type": "Feature", "properties": {"customer_hex_id": "CH-q5_r-2", "q": 5, "r": -2, "worker_hex_id": "WH-12", "centroid_lon": 75.9236894, "centroid_lat": 22.718944, "area_inside_imc_km2": 2.269}, "geometry": {"type": "Polygon", "coordinates": [[[75.9315685, 22.7231683], [75.9236894, 22.7273926], [75.9158103, 22.7231683], [75.9158103, 22.7147196], [75.9236894, 22.7104953], [75.9315685, 22.7147196], [75.9315685, 22.7231683]]]}}, {"type": "Feature", "properties": {"customer_hex_id": "CH-q5_r-1", "q": 5, "r": -1, "worker_hex_id": "WH-12", "centroid_lon": 75.9315685, "centroid_lat": 22.7316169, "area_inside_imc_km2": 2.269}, "geometry": {"type": "Polygon", "coordinates": [[[75.9394476, 22.7358412], [75.9315685, 22.7400656], [75.9236894, 22.7358412], [75.9236894, 22.7273926], [75.9315685, 22.7231683], [75.9394476, 22.7273926], [75.9394476, 22.7358412]]]}}, {"type": "Feature", "properties": {"customer_hex_id": "CH-q5_r0", "q": 5, "r": 0, "worker_hex_id": "WH-12", "centroid_lon": 75.9394476, "centroid_lat": 22.7442899, "area_inside_imc_km2": 2.27}, "geometry": {"type": "Polygon", "coordinates": [[[75.9473267, 22.7485142], [75.9394476, 22.7527385], [75.9315685, 22.7485142], [75.9315685, 22.7400656], [75.9394476, 22.7358412], [75.9473267, 22.7400656], [75.9473267, 22.7485142]]]}}, {"type": "Feature", "properties": {"customer_hex_id": "CH-q5_r1", "q": 5, "r": 1, "worker_hex_id": "WH-05", "centroid_lon": 75.9473267, "centroid_lat": 22.7569628, "area_inside_imc_km2": 0.738}, "geometry": {"type": "Polygon", "coordinates": [[[75.9552058, 22.7611872], [75.9473267, 22.7654115], [75.9394476, 22.7611872], [75.9394476, 22.7527385], [75.9473267, 22.7485142], [75.9552058, 22.7527385], [75.9552058, 22.7611872]]]}}, {"type": "Feature", "properties": {"customer_hex_id": "CH-q6_r-9", "q": 6, "r": -9, "worker_hex_id": "WH-19", "centroid_lon": 75.8842939, "centroid_lat": 22.6302332, "area_inside_imc_km2": 0.901}, "geometry": {"type": "Polygon", "coordinates": [[[75.892173, 22.6344576], [75.8842939, 22.6386819], [75.8764148, 22.6344576], [75.8764148, 22.6260089], [75.8842939, 22.6217846], [75.892173, 22.6260089], [75.892173, 22.6344576]]]}}, {"type": "Feature", "properties": {"customer_hex_id": "CH-q6_r-8", "q": 6, "r": -8, "worker_hex_id": "WH-19", "centroid_lon": 75.892173, "centroid_lat": 22.6429062, "area_inside_imc_km2": 0.415}, "geometry": {"type": "Polygon", "coordinates": [[[75.9000521, 22.6471305], [75.892173, 22.6513548], [75.8842939, 22.6471305], [75.8842939, 22.6386819], [75.892173, 22.6344576], [75.9000521, 22.6386819], [75.9000521, 22.6471305]]]}}, {"type": "Feature", "properties": {"customer_hex_id": "CH-q6_r-7", "q": 6, "r": -7, "worker_hex_id": "WH-16", "centroid_lon": 75.9000521, "centroid_lat": 22.6555792, "area_inside_imc_km2": 0.723}, "geometry": {"type": "Polygon", "coordinates": [[[75.9079312, 22.6598035], [75.9000521, 22.6640278], [75.892173, 22.6598035], [75.892173, 22.6513548], [75.9000521, 22.6471305], [75.9079312, 22.6513548], [75.9079312, 22.6598035]]]}}, {"type": "Feature", "properties": {"customer_hex_id": "CH-q6_r-6", "q": 6, "r": -6, "worker_hex_id": "WH-16", "centroid_lon": 75.9079312, "centroid_lat": 22.6682521, "area_inside_imc_km2": 2.269}, "geometry": {"type": "Polygon", "coordinates": [[[75.9158103, 22.6724764], [75.9079312, 22.6767008], [75.9000521, 22.6724764], [75.9000521, 22.6640278], [75.9079312, 22.6598035], [75.9158103, 22.6640278], [75.9158103, 22.6724764]]]}}, {"type": "Feature", "properties": {"customer_hex_id": "CH-q6_r-5", "q": 6, "r": -5, "worker_hex_id": "WH-16", "centroid_lon": 75.9158103, "centroid_lat": 22.6809251, "area_inside_imc_km2": 1.755}, "geometry": {"type": "Polygon", "coordinates": [[[75.9236894, 22.6851494], [75.9158103, 22.6893737], [75.9079312, 22.6851494], [75.9079312, 22.6767008], [75.9158103, 22.6724764], [75.9236894, 22.6767008], [75.9236894, 22.6851494]]]}}, {"type": "Feature", "properties": {"customer_hex_id": "CH-q6_r-4", "q": 6, "r": -4, "worker_hex_id": "WH-16", "centroid_lon": 75.9236894, "centroid_lat": 22.693598, "area_inside_imc_km2": 2.264}, "geometry": {"type": "Polygon", "coordinates": [[[75.9315685, 22.6978224], [75.9236894, 22.7020467], [75.9158103, 22.6978224], [75.9158103, 22.6893737], [75.9236894, 22.6851494], [75.9315685, 22.6893737], [75.9315685, 22.6978224]]]}}, {"type": "Feature", "properties": {"customer_hex_id": "CH-q6_r-3", "q": 6, "r": -3, "worker_hex_id": "WH-16", "centroid_lon": 75.9315685, "centroid_lat": 22.706271, "area_inside_imc_km2": 2.269}, "geometry": {"type": "Polygon", "coordinates": [[[75.9394476, 22.7104953], [75.9315685, 22.7147196], [75.9236894, 22.7104953], [75.9236894, 22.7020467], [75.9315685, 22.6978224], [75.9394476, 22.7020467], [75.9394476, 22.7104953]]]}}, {"type": "Feature", "properties": {"customer_hex_id": "CH-q6_r-2", "q": 6, "r": -2, "worker_hex_id": "WH-12", "centroid_lon": 75.9394476, "centroid_lat": 22.718944, "area_inside_imc_km2": 2.269}, "geometry": {"type": "Polygon", "coordinates": [[[75.9473267, 22.7231683], [75.9394476, 22.7273926], [75.9315685, 22.7231683], [75.9315685, 22.7147196], [75.9394476, 22.7104953], [75.9473267, 22.7147196], [75.9473267, 22.7231683]]]}}, {"type": "Feature", "properties": {"customer_hex_id": "CH-q6_r-1", "q": 6, "r": -1, "worker_hex_id": "WH-12", "centroid_lon": 75.9473267, "centroid_lat": 22.7316169, "area_inside_imc_km2": 2.269}, "geometry": {"type": "Polygon", "coordinates": [[[75.9552058, 22.7358412], [75.9473267, 22.7400656], [75.9394476, 22.7358412], [75.9394476, 22.7273926], [75.9473267, 22.7231683], [75.9552058, 22.7273926], [75.9552058, 22.7358412]]]}}, {"type": "Feature", "properties": {"customer_hex_id": "CH-q6_r0", "q": 6, "r": 0, "worker_hex_id": "WH-13", "centroid_lon": 75.9552058, "centroid_lat": 22.7442899, "area_inside_imc_km2": 1.971}, "geometry": {"type": "Polygon", "coordinates": [[[75.9630848, 22.7485142], [75.9552058, 22.7527385], [75.9473267, 22.7485142], [75.9473267, 22.7400656], [75.9552058, 22.7358412], [75.9630848, 22.7400656], [75.9630848, 22.7485142]]]}}, {"type": "Feature", "properties": {"customer_hex_id": "CH-q7_r-7", "q": 7, "r": -7, "worker_hex_id": "WH-16", "centroid_lon": 75.9158103, "centroid_lat": 22.6555792, "area_inside_imc_km2": 1.321}, "geometry": {"type": "Polygon", "coordinates": [[[75.9236894, 22.6598035], [75.9158103, 22.6640278], [75.9079312, 22.6598035], [75.9079312, 22.6513548], [75.9158103, 22.6471305], [75.9236894, 22.6513548], [75.9236894, 22.6598035]]]}}, {"type": "Feature", "properties": {"customer_hex_id": "CH-q7_r-6", "q": 7, "r": -6, "worker_hex_id": "WH-16", "centroid_lon": 75.9236894, "centroid_lat": 22.6682521, "area_inside_imc_km2": 1.618}, "geometry": {"type": "Polygon", "coordinates": [[[75.9315685, 22.6724764], [75.9236894, 22.6767008], [75.9158103, 22.6724764], [75.9158103, 22.6640278], [75.9236894, 22.6598035], [75.9315685, 22.6640278], [75.9315685, 22.6724764]]]}}, {"type": "Feature", "properties": {"customer_hex_id": "CH-q7_r-5", "q": 7, "r": -5, "worker_hex_id": "WH-16", "centroid_lon": 75.9315685, "centroid_lat": 22.6809251, "area_inside_imc_km2": 0.158}, "geometry": {"type": "Polygon", "coordinates": [[[75.9394476, 22.6851494], [75.9315685, 22.6893737], [75.9236894, 22.6851494], [75.9236894, 22.6767008], [75.9315685, 22.6724764], [75.9394476, 22.6767008], [75.9394476, 22.6851494]]]}}, {"type": "Feature", "properties": {"customer_hex_id": "CH-q7_r-4", "q": 7, "r": -4, "worker_hex_id": "WH-16", "centroid_lon": 75.9394476, "centroid_lat": 22.693598, "area_inside_imc_km2": 1.412}, "geometry": {"type": "Polygon", "coordinates": [[[75.9473267, 22.6978224], [75.9394476, 22.7020467], [75.9315685, 22.6978224], [75.9315685, 22.6893737], [75.9394476, 22.6851494], [75.9473267, 22.6893737], [75.9473267, 22.6978224]]]}}, {"type": "Feature", "properties": {"customer_hex_id": "CH-q7_r-3", "q": 7, "r": -3, "worker_hex_id": "WH-13", "centroid_lon": 75.9473267, "centroid_lat": 22.706271, "area_inside_imc_km2": 0.832}, "geometry": {"type": "Polygon", "coordinates": [[[75.9552058, 22.7104953], [75.9473267, 22.7147196], [75.9394476, 22.7104953], [75.9394476, 22.7020467], [75.9473267, 22.6978224], [75.9552058, 22.7020467], [75.9552058, 22.7104953]]]}}, {"type": "Feature", "properties": {"customer_hex_id": "CH-q7_r-2", "q": 7, "r": -2, "worker_hex_id": "WH-13", "centroid_lon": 75.9552058, "centroid_lat": 22.718944, "area_inside_imc_km2": 2.268}, "geometry": {"type": "Polygon", "coordinates": [[[75.9630848, 22.7231683], [75.9552058, 22.7273926], [75.9473267, 22.7231683], [75.9473267, 22.7147196], [75.9552058, 22.7104953], [75.9630848, 22.7147196], [75.9630848, 22.7231683]]]}}, {"type": "Feature", "properties": {"customer_hex_id": "CH-q7_r-1", "q": 7, "r": -1, "worker_hex_id": "WH-13", "centroid_lon": 75.9630848, "centroid_lat": 22.7316169, "area_inside_imc_km2": 2.269}, "geometry": {"type": "Polygon", "coordinates": [[[75.9709639, 22.7358412], [75.9630848, 22.7400656], [75.9552058, 22.7358412], [75.9552058, 22.7273926], [75.9630848, 22.7231683], [75.9709639, 22.7273926], [75.9709639, 22.7358412]]]}}, {"type": "Feature", "properties": {"customer_hex_id": "CH-q7_r0", "q": 7, "r": 0, "worker_hex_id": "WH-13", "centroid_lon": 75.9709639, "centroid_lat": 22.7442899, "area_inside_imc_km2": 1.338}, "geometry": {"type": "Polygon", "coordinates": [[[75.978843, 22.7485142], [75.9709639, 22.7527385], [75.9630848, 22.7485142], [75.9630848, 22.7400656], [75.9709639, 22.7358412], [75.978843, 22.7400656], [75.978843, 22.7485142]]]}}, {"type": "Feature", "properties": {"customer_hex_id": "CH-q8_r-3", "q": 8, "r": -3, "worker_hex_id": "WH-13", "centroid_lon": 75.9630848, "centroid_lat": 22.706271, "area_inside_imc_km2": 0.271}, "geometry": {"type": "Polygon", "coordinates": [[[75.9709639, 22.7104953], [75.9630848, 22.7147196], [75.9552058, 22.7104953], [75.9552058, 22.7020467], [75.9630848, 22.6978224], [75.9709639, 22.7020467], [75.9709639, 22.7104953]]]}}, {"type": "Feature", "properties": {"customer_hex_id": "CH-q8_r-2", "q": 8, "r": -2, "worker_hex_id": "WH-13", "centroid_lon": 75.9709639, "centroid_lat": 22.718944, "area_inside_imc_km2": 1.463}, "geometry": {"type": "Polygon", "coordinates": [[[75.978843, 22.7231683], [75.9709639, 22.7273926], [75.9630848, 22.7231683], [75.9630848, 22.7147196], [75.9709639, 22.7104953], [75.978843, 22.7147196], [75.978843, 22.7231683]]]}}, {"type": "Feature", "properties": {"customer_hex_id": "CH-q8_r-1", "q": 8, "r": -1, "worker_hex_id": "WH-13", "centroid_lon": 75.978843, "centroid_lat": 22.7316169, "area_inside_imc_km2": 1.722}, "geometry": {"type": "Polygon", "coordinates": [[[75.9867221, 22.7358412], [75.978843, 22.7400656], [75.9709639, 22.7358412], [75.9709639, 22.7273926], [75.978843, 22.7231683], [75.9867221, 22.7273926], [75.9867221, 22.7358412]]]}}, {"type": "Feature", "properties": {"customer_hex_id": "CH-q9_r-2", "q": 9, "r": -2, "worker_hex_id": "WH-13", "centroid_lon": 75.9867221, "centroid_lat": 22.718944, "area_inside_imc_km2": 0.053}, "geometry": {"type": "Polygon", "coordinates": [[[75.9946012, 22.7231683], [75.9867221, 22.7273926], [75.978843, 22.7231683], [75.978843, 22.7147196], [75.9867221, 22.7104953], [75.9946012, 22.7147196], [75.9946012, 22.7231683]]]}}]}