{"type": "FeatureCollection", "name": "imc_boundary_dissolved", "crs": {"type": "name", "properties": {"name": "urn:ogc:def:crs:OGC:1.3:CRS84"}}, "features": [{"type": "Feature", "properties": {"name": "Indore Municipal Corporation (dissolved boundary)", "source": "union of 85 cleaned ward polygons", "cleaning_method": "vertex_cluster_snap_5m (wards) + raster dissolve 1m grid + cv2 external contour + Douglas-Peucker simplify 2m", "crs_computation": "EPSG:32643 (UTM 43N)", "area_km2": 268.7056, "vertex_count": 692}, "geometry": {"type": "Polygon", "coordinates": [[[75.83924100055434, 22.820770713453857], [75.83855715132104, 22.82048525857856], [75.83840058417722, 22.820377686768992], [75.83814558258435, 22.820108039087604], [75.83802743915574, 22.819909935070445], [75.83781939032156, 22.81935098476811], [75.83772777216637, 22.818710125337034], [75.83773674244006, 22.818583616552445], [75.8377939897666, 22.818384590181342], [75.8380155551197, 22.81796790843077], [75.83836019403016, 22.81696343567874], [75.83876063488137, 22.815525085712732], [75.83878820625782, 22.815253951346886], [75.8387191161188, 22.815109787332506], [75.83856211274976, 22.81492995394811], [75.83799427763806, 22.814490324646908], [75.8377303180628, 22.8143471846116], [75.83754513568215, 22.814339124857337], [75.83684558783511, 22.814667986645524], [75.83668149222873, 22.81492177158337], [75.8366039298009, 22.81498540959175], [75.83649691588587, 22.815013070223134], [75.83594984181128, 22.814781083081332], [75.83510237146514, 22.814821657718657], [75.8349264915905, 22.81474128233232], [75.83466181901673, 22.81448071210669], [75.83432035456408, 22.814410236066266], [75.83422308412928, 22.81443784416834], [75.83417464142748, 22.81448326263352], [75.83418576022753, 22.814709029033406], [75.83410004828878, 22.815034665026438], [75.83398395015372, 22.81517076732645], [75.83301184214375, 22.815546203497682], [75.8328665115608, 22.815682457798587], [75.83284823262625, 22.81588127898042], [75.83293889183548, 22.816368586335507], [75.8328911071884, 22.81652239679274], [75.83273647112827, 22.816730963488308], [75.83256152350599, 22.816804141393185], [75.83198702798082, 22.816870372458805], [75.83173440415953, 22.81698911988292], [75.83156947360159, 22.817107409364645], [75.83127897045654, 22.81740701343803], [75.8310938388661, 22.817407979001462], [75.8306059382656, 22.81729309381811], [75.82986294940852, 22.816890480003913], [75.82929666420274, 22.816703734959614], [75.82823503526828, 22.816781519609354], [75.82775742865563, 22.816756902001615], [75.82760212936881, 22.816857071448485], [75.827329577524, 22.81690365152769], [75.82683231947883, 22.816852034188717], [75.8266077773412, 22.816780935036252], [75.82647076547704, 22.816682282686088], [75.82612717424978, 22.81625951337381], [75.82647754142147, 22.812960653236935], [75.82662265773993, 22.81278827375287], [75.82713764254162, 22.81255074423282], [75.82728248484817, 22.812333200605106], [75.82731084229108, 22.812188525464617], [75.82689044252078, 22.81033894208193], [75.82675272845923, 22.81012286437929], [75.82657707727975, 22.81007861028198], [75.82532242773455, 22.81045546423145], [75.82515657422164, 22.810420190844383], [75.82503916522887, 22.810339501538095], [75.82544479990456, 22.80489049922381], [75.82548998621598, 22.801069301785052], [75.82557620515058, 22.79920805460666], [75.82551737513158, 22.79752821824994], [75.82543910985592, 22.797474425267694], [75.82372266216115, 22.797185210655687], [75.82343948298106, 22.79707827682289], [75.8234292523519, 22.796997032462496], [75.82352412549798, 22.796571990608616], [75.82094604155384, 22.785799843540218], [75.82270687671462, 22.77402072107803], [75.82250432187298, 22.772730039167683], [75.82212054245849, 22.772081636809382], [75.82167886430686, 22.77152386196667], [75.82100417430368, 22.771093747186566], [75.82022407042582, 22.770953228888136], [75.81902539655583, 22.770860020278914], [75.81762357264905, 22.771002702872575], [75.81664074887286, 22.771170329266194], [75.81464544301397, 22.771433450925617], [75.81177305030205, 22.771628746358125], [75.81025437527705, 22.771780991878686], [75.80795506656698, 22.771702316527037], [75.80637746413484, 22.771773525863804], [75.8045183881978, 22.772017767101328], [75.80220059784968, 22.77211073055597], [75.80175295138847, 22.772185244401292], [75.80110048750844, 22.772215619697285], [75.80077873050875, 22.772163035768806], [75.79997057422085, 22.772221286732062], [75.79927983077809, 22.772369276563523], [75.79852053329734, 22.772454374811716], [75.79830576609605, 22.77237415133473], [75.79797463655726, 22.77238484022844], [75.79715736617298, 22.772551519634426], [75.79669070560486, 22.77270741214087], [75.79550281414765, 22.772794634844885], [75.79266822162536, 22.772799704254094], [75.79190902086499, 22.772902836902343], [75.79044812352218, 22.77294621088736], [75.7816326697176, 22.772971558660867], [75.78160536988439, 22.771598659164905], [75.781519010727, 22.770117651197264], [75.78141759485713, 22.76941356463345], [75.78120135105254, 22.769071364595654], [75.78110695431438, 22.767888488062397], [75.78057474337864, 22.765081790633513], [75.77949942467701, 22.762684233052422], [75.77837154181742, 22.761316699794754], [75.77482081749083, 22.75865112758876], [75.7695841513372, 22.75752924080789], [75.76980532868369, 22.757022318519464], [75.77044292563814, 22.756088829597196], [75.7716200401361, 22.754104887339185], [75.77211015078416, 22.752928209455423], [75.77230336333156, 22.752647247707646], [75.77318501466362, 22.751820965735284], [75.7734653172069, 22.751440216399565], [75.77516974431899, 22.74799032446435], [75.77525556060168, 22.747664714625266], [75.77573195511278, 22.744067207781], [75.7758840520289, 22.743407049025063], [75.7761533678052, 22.742809552801678], [75.77638520659046, 22.742474199715875], [75.77730643851336, 22.741774167835434], [75.7778403197014, 22.741464442502217], [75.77812196937914, 22.741327573857596], [75.77869556832601, 22.741153149589245], [75.77898756917732, 22.741124626821556], [75.77929925166715, 22.741132140137275], [75.78090779346999, 22.74142238075151], [75.78290444154554, 22.74145777573834], [75.78383928519919, 22.74144415928765], [75.78470410284811, 22.741105688150185], [75.78580165757907, 22.74059443832713], [75.78655882557226, 22.740166155297317], [75.7868214519689, 22.74011066346282], [75.78825258037024, 22.740031344900174], [75.78929406816115, 22.7399358724109], [75.78978046769288, 22.739843137703655], [75.79003319791948, 22.739760590135084], [75.79040185323846, 22.739514872350764], [75.79208820509486, 22.738097353104624], [75.79327980570648, 22.737016499292935], [75.79423949991782, 22.736252949280452], [75.7960151917341, 22.735142072369698], [75.80133398667415, 22.73208939484948], [75.80207189845117, 22.731715335389335], [75.80106586280735, 22.729525330207526], [75.80073115592222, 22.728903721157764], [75.80056335678358, 22.728516136931905], [75.80047351124365, 22.728137195287584], [75.80047135612472, 22.72776684761695], [75.80027084253176, 22.72510307665994], [75.8003212439576, 22.72204962360823], [75.80256657645064, 22.714685392363172], [75.80248920503043, 22.713104980128673], [75.80367645101495, 22.71132852212392], [75.80413374102982, 22.711272024870226], [75.80564265666679, 22.711228299098703], [75.80696605184048, 22.711095163789476], [75.80892954360472, 22.710534224084068], [75.81026043152303, 22.71002163206467], [75.81120717901015, 22.70710816302877], [75.81231806470073, 22.703968026466992], [75.8023219954609, 22.701118824441345], [75.8019713168493, 22.697742179749895], [75.80146961882362, 22.69015683108537], [75.80055386350465, 22.690043982573616], [75.79814622481447, 22.689514015459686], [75.79758118918839, 22.689444566478567], [75.79725910540752, 22.68930164013749], [75.79672270089333, 22.689132680483652], [75.79641998378784, 22.68897158964862], [75.79625350151305, 22.688800787410543], [75.79613626724165, 22.688729105069935], [75.79540444198028, 22.688434648142213], [75.79230584220761, 22.687935123339887], [75.79211953679173, 22.68431373518818], [75.79207772198583, 22.6821188755087], [75.79202536628651, 22.68147777749756], [75.78859370984563, 22.672073080018645], [75.78756700453093, 22.666143307505276], [75.78746008440676, 22.664463653705745], [75.78750586272953, 22.663957568151215], [75.78759999628396, 22.663397045504354], [75.78784908237984, 22.662700262506927], [75.788041780539, 22.662356052261675], [75.78839030679808, 22.662029141531125], [75.78863259604589, 22.661847284617284], [75.78886551324902, 22.661728706064032], [75.78915693035573, 22.66162790550087], [75.78982792728448, 22.661525233683474], [75.79066469153122, 22.6614759404631], [75.79323384391999, 22.661409042226545], [75.79582193716988, 22.66125167662097], [75.79703895346601, 22.66131789279685], [75.79828412402728, 22.661203295217764], [75.79937341086942, 22.66106236617922], [75.80073442635654, 22.660784573919674], [75.80157991626757, 22.660563549353387], [75.80376546644689, 22.659811877910887], [75.80476482413592, 22.659273902767456], [75.80586076147739, 22.658608971030283], [75.80805080620297, 22.656971966099547], [75.8100959266447, 22.655525361982587], [75.81268329793343, 22.653615290714516], [75.81316682286894, 22.653088912722787], [75.8144418788674, 22.651456463146737], [75.81490667193967, 22.65105664003323], [75.815226602259, 22.650847249594516], [75.81769318363543, 22.649931365685813], [75.8179840182245, 22.649740184691947], [75.8188266251448, 22.64904935987474], [75.81904965468648, 22.648912722518883], [75.81921472132613, 22.64884864663823], [75.82080929679736, 22.64859659302019], [75.8212475519282, 22.648648547365006], [75.82166575244743, 22.648601238244183], [75.82499837540225, 22.647680802071875], [75.82514392012406, 22.647607787466853], [75.82525037573463, 22.647507874429262], [75.8257040956653, 22.64689128151353], [75.82596517709894, 22.64660990781846], [75.82618841152312, 22.646509392430666], [75.82699522141924, 22.646351668085114], [75.8270630185338, 22.646297119222666], [75.82692169145953, 22.645448729202634], [75.82692623130743, 22.64458152021852], [75.82697267165686, 22.644210920137017], [75.8269705624982, 22.643858636841284], [75.82688622171503, 22.6427750896864], [75.82677479695784, 22.642043976259107], [75.82662504282062, 22.64141242534257], [75.82625758238427, 22.640176772597574], [75.8263058603662, 22.640113291477522], [75.82770602069822, 22.639916372684308], [75.8278127934097, 22.63987065552918], [75.82781792404477, 22.639102808091064], [75.82810946558655, 22.637412096411058], [75.82830002507372, 22.63673362298033], [75.82860800406212, 22.636162940912744], [75.82872401696908, 22.63603587675348], [75.82888895522512, 22.635953725580993], [75.82929765428487, 22.635951612541213], [75.83010580971164, 22.636028729871818], [75.8304853160717, 22.636026764912256], [75.83075756492178, 22.635989221996816], [75.83149537604442, 22.635696336091794], [75.83228134871436, 22.635321898245085], [75.83332776212899, 22.634566709768606], [75.83346317643304, 22.634430508295253], [75.8337813502119, 22.633941062459037], [75.83402342029446, 22.633741073700957], [75.8342078140298, 22.633658816000153], [75.83485862866362, 22.633465732533598], [75.83510167883277, 22.63342833438021], [75.83525698846695, 22.63336429330372], [75.83537304743325, 22.633246257442092], [75.83622142599386, 22.63193202479684], [75.83683762311975, 22.630844828995464], [75.83689332642712, 22.63040191240038], [75.83699779126637, 22.629976807688593], [75.8374300264908, 22.62904413368532], [75.83752262395929, 22.62826679640728], [75.83758018518411, 22.628130998086394], [75.83810310527046, 22.627712740262307], [75.8383164055662, 22.627585161083932], [75.83929658996273, 22.62715547590496], [75.84061694244089, 22.62666077035515], [75.8409177009563, 22.6265146631044], [75.84178055678184, 22.625995246290252], [75.8419557553434, 22.626003360022146], [75.84280514596966, 22.626468624926357], [75.84435705178696, 22.627246349958792], [75.84454236855984, 22.627317639776194], [75.84481503729911, 22.627352336651782], [75.84639875435047, 22.62855443273067], [75.8484361149087, 22.629148891259725], [75.84886452995873, 22.629191790384883], [75.85256202594887, 22.6291631465884], [75.86954038218775, 22.628891340580097], [75.87424201373902, 22.629163876675058], [75.87541114141185, 22.629392361233915], [75.87652085942345, 22.629458565714035], [75.88049481102364, 22.63006008452106], [75.88231560323833, 22.630239773958888], [75.88399919171815, 22.630266636088507], [75.88753085718017, 22.63017486757273], [75.88778664897677, 22.63212460078337], [75.88800509359776, 22.634318433241635], [75.88822130615674, 22.63767754550606], [75.88836845775103, 22.63937495075673], [75.88835375847503, 22.640115745255965], [75.88823317838808, 22.64103778799965], [75.88793322000781, 22.642818967111143], [75.88565448847476, 22.654719105918346], [75.8966916429937, 22.659300718055885], [75.89707079566406, 22.659235364421402], [75.89912032925245, 22.658609629605586], [75.89933438200596, 22.658599395303526], [75.89955928558737, 22.65876072766906], [75.89994173332317, 22.659201199319646], [75.90381152643941, 22.657128917939954], [75.90626672240977, 22.656040119803738], [75.90770381295904, 22.655535169134982], [75.91282754882046, 22.65326587428906], [75.91508670667754, 22.65198836715076], [75.91597957859172, 22.65161291268066], [75.91679603069754, 22.651454683061804], [75.91752561503995, 22.65140534291288], [75.91809065933468, 22.651492437383986], [75.91850041612024, 22.65164365099019], [75.91873590271462, 22.651931357889016], [75.92094695268266, 22.658043050036174], [75.92309219395645, 22.664471235882893], [75.92333738505259, 22.664749845790087], [75.9239141553379, 22.665125906251966], [75.9253691187393, 22.665831114762575], [75.92661946455539, 22.666501361373104], [75.92768520137949, 22.66721783199558], [75.92814574558695, 22.66767584642579], [75.92831339302684, 22.668000062384213], [75.9295917658161, 22.67138001617412], [75.92984173198387, 22.67236315969026], [75.92986594824475, 22.673067591247754], [75.92973321379539, 22.673592274463903], [75.92948252152064, 22.673946015688482], [75.92895947610404, 22.67432843553468], [75.92846514149458, 22.674638423467197], [75.927834597514, 22.67495823212614], [75.92447512731088, 22.67621517959966], [75.92011248842024, 22.677396528567943], [75.92057798845262, 22.678595240416847], [75.92109548465645, 22.680290465533563], [75.91778665377527, 22.681872173301915], [75.91592397839155, 22.682822271100928], [75.91663269097062, 22.68546488038557], [75.91682334819963, 22.68632192219355], [75.91919561386766, 22.68587473496955], [75.9194480406966, 22.685773922551444], [75.92131501571185, 22.68546510035195], [75.92200596122255, 22.685434023438194], [75.92264877958392, 22.685484517714485], [75.92731600510302, 22.68613502269341], [75.92803737054248, 22.686284402763725], [75.92903208727782, 22.68654962187596], [75.93038715784401, 22.686839839564573], [75.93148956998543, 22.68719474674411], [75.93249336123918, 22.68736052863011], [75.93373855381691, 22.687235841690978], [75.93564463094971, 22.686953723461016], [75.93901070915638, 22.686644959212916], [75.94038292505184, 22.68659173928024], [75.94058740504218, 22.68659957087209], [75.94079237826571, 22.686679662832447], [75.94088047944592, 22.686751408557562], [75.94094979057165, 22.686922627028558], [75.94106267471656, 22.689198264096845], [75.94090695444068, 22.693480791108453], [75.94115390020568, 22.694003249177797], [75.94153707288943, 22.69451587244051], [75.94160632737466, 22.694678057736038], [75.94168648980238, 22.695011804486473], [75.94166284164022, 22.69582490733243], [75.94152113981566, 22.696458046153296], [75.94124518411306, 22.697390061222972], [75.94122719530829, 22.69760695731612], [75.94134876777898, 22.698301777614176], [75.94170867660249, 22.699681697565126], [75.94208546882248, 22.700682134090563], [75.94209687210248, 22.700925955874666], [75.94215738410438, 22.701232718937085], [75.94244341429547, 22.701773009686082], [75.94330803699012, 22.702924128002405], [75.9420006485943, 22.705361686547377], [75.94446322316234, 22.70811123813183], [75.94620834691075, 22.709871374478585], [75.94744454921337, 22.709827925169296], [75.95053286355375, 22.710107687799354], [75.95181163054207, 22.710587859652865], [75.95353575506313, 22.71070405089037], [75.95616400083051, 22.710625130484555], [75.96001637607522, 22.710168476216786], [75.9616263817899, 22.71067367876179], [75.9651455805108, 22.711302848479576], [75.96497274053097, 22.71164714038758], [75.96997191070764, 22.716422380451597], [75.9738222790707, 22.71979532910742], [75.97796328829992, 22.720194598424598], [75.97961363916792, 22.72087099094983], [75.98006441401358, 22.721274705843882], [75.97963254597258, 22.723526527016418], [75.98016386211985, 22.724300093587843], [75.98149347398457, 22.725050693377515], [75.98315370135828, 22.725736018932636], [75.98439749748749, 22.72537608488754], [75.98538767722214, 22.72495447507536], [75.98615640008094, 22.73031522481153], [75.98334579472603, 22.732175234626084], [75.97910741156664, 22.735931809013973], [75.97624651734198, 22.74033926143125], [75.97450988992192, 22.744008153573365], [75.9740979268889, 22.746341132158094], [75.97203164615446, 22.747482820358275], [75.97103890109426, 22.747570153437795], [75.96621653074511, 22.747337442639825], [75.96447373141329, 22.747402171451103], [75.96214877277389, 22.747777505111678], [75.95767637336542, 22.748852190044904], [75.95176070158409, 22.749664372296362], [75.94382848161031, 22.751825129693408], [75.94448479062699, 22.75520857290535], [75.94473441521292, 22.76176494915344], [75.94443755017015, 22.76533468114568], [75.94391057706486, 22.769438710146776], [75.94250782181065, 22.76941990037448], [75.94249845383693, 22.76947415276983], [75.94261340963652, 22.770611612592873], [75.94349932843228, 22.770543148501467], [75.94373192163599, 22.77178830580178], [75.94474471875942, 22.771755215732945], [75.94517266659149, 22.771662353735564], [75.94533090086837, 22.77342282014244], [75.94531533962301, 22.773991981054305], [75.94523859855477, 22.774164059477638], [75.94509373666146, 22.774345574109592], [75.9449402534147, 22.77468973072616], [75.94505426574372, 22.777100822653274], [75.94562025204424, 22.781487425477803], [75.94564241100825, 22.78187570574802], [75.9456055017545, 22.78217400780087], [75.94546162831023, 22.78250004219098], [75.94528709968705, 22.78261850305306], [75.94361307734955, 22.78283616729216], [75.94362085780563, 22.78538337901203], [75.94368960544186, 22.78546426781975], [75.94444917015976, 22.78542364175666], [75.94496570234104, 22.785456714391064], [75.94641869819132, 22.785673921993634], [75.94787269684116, 22.786035635369867], [75.94792177751884, 22.786089540661973], [75.94794188422419, 22.786179749377084], [75.94753436765552, 22.78782614327185], [75.94705234093902, 22.789969783357286], [75.94636851435263, 22.79393021492785], [75.94523269183378, 22.79875143950724], [75.94495418893895, 22.800749340926718], [75.94484995031215, 22.801174500607765], [75.9441545661486, 22.803472952854715], [75.94386733075902, 22.804206310863027], [75.94376134479226, 22.804378561592397], [75.94361595297512, 22.80448781584104], [75.94172552495466, 22.804444796355302], [75.93744872616135, 22.80449709911047], [75.93567539297266, 22.804480417730616], [75.93387881959536, 22.803912850445286], [75.93258966954679, 22.803459722035328], [75.93166228890611, 22.803194158860354], [75.92932053727657, 22.80268392083793], [75.9284135090579, 22.802544679500198], [75.92645264932253, 22.80216767299984], [75.92460055031636, 22.802024865364928], [75.92199840910327, 22.801904440619296], [75.92168683361507, 22.801933340522186], [75.92132709227015, 22.80204381378469], [75.92120104765544, 22.802134870546283], [75.92108523095288, 22.802298130924562], [75.91981450308073, 22.804581744902556], [75.91952725485041, 22.805333128349613], [75.91890361140301, 22.806772947089588], [75.91876824203607, 22.806927285723514], [75.91837096685292, 22.807254757350744], [75.91827372026651, 22.807282416078436], [75.91383129208387, 22.807353107354647], [75.913403028678, 22.807418791697874], [75.91057514169964, 22.80706462185365], [75.90721171197379, 22.806758614228734], [75.90651829896215, 22.806509638288265], [75.90421536205888, 22.80597171126499], [75.90313314098282, 22.80586041817702], [75.90124280722584, 22.80583498390303], [75.90068776648214, 22.805883284982105], [75.90025866923371, 22.80582247841822], [75.900005357316, 22.805823908620948], [75.8995773871218, 22.805934718634894], [75.89949404950345, 22.80511319639905], [75.89951092619934, 22.80471565425407], [75.89982057351338, 22.802907329872006], [75.90077850420347, 22.80041787723366], [75.90152189494316, 22.797902533320354], [75.90176782447645, 22.796781064585993], [75.90191074739481, 22.796292480311184], [75.90211193845894, 22.794295073513293], [75.89874150068314, 22.789897013607035], [75.89822111176483, 22.789276674380254], [75.8976427512349, 22.788728922753585], [75.89715330981946, 22.78837035987058], [75.89668388545199, 22.788092979062558], [75.89636141186239, 22.787941231904323], [75.89575596364307, 22.787718809974454], [75.89508268065973, 22.78755096378162], [75.89405905952623, 22.78743927599697], [75.88601107308874, 22.787249321019267], [75.88598266550365, 22.787375939776005], [75.88599345727387, 22.78753847253406], [75.88612353996413, 22.788070692702032], [75.88608060963122, 22.788965190846447], [75.88598634464647, 22.78945349240532], [75.88596896208212, 22.78977877425229], [75.88630129521756, 22.791457051836407], [75.88656817763746, 22.792051741504473], [75.88678395810295, 22.792276365004668], [75.88711675840206, 22.792518403225774], [75.8871854773642, 22.792599317284587], [75.88723506334837, 22.792734535258163], [75.88717871604821, 22.793060033783803], [75.8872087599579, 22.793186327533565], [75.8873459064953, 22.793302992533953], [75.88765852474066, 22.79343674676939], [75.88873446814492, 22.794099190835954], [75.88898928187778, 22.794332626522202], [75.88918587882463, 22.79460251800906], [75.88940125745798, 22.794763909526374], [75.88949028333971, 22.794971170044068], [75.8894249018212, 22.795405114497708], [75.88930940333182, 22.795622548482157], [75.88921268564177, 22.795731482721397], [75.88889553081522, 22.796401686286888], [75.88879152961934, 22.796890043199408], [75.88875619159117, 22.797450280679424], [75.88867015128777, 22.79770368168907], [75.88854467335695, 22.79788503910564], [75.88839930084522, 22.79800327687973], [75.88779674426088, 22.798232455351496], [75.88748668781164, 22.798496135663587], [75.88728256766862, 22.798569534825173], [75.88682462181816, 22.79856304927736], [75.88668887250846, 22.798663166195155], [75.88656625362259, 22.799287118993345], [75.88656806466382, 22.79956712923347], [75.8865981096621, 22.799693422969206], [75.88679622946482, 22.80019816439502], [75.8869535106557, 22.800414079509096], [75.8873256521052, 22.800710095158298], [75.88761903657762, 22.800880087578193], [75.8878924687465, 22.800977927264434], [75.8880100219191, 22.801076634646932], [75.88866815470344, 22.801903995575184], [75.88873787517711, 22.8021384625546], [75.8888560743382, 22.802336527623613], [75.88925809749207, 22.80273173381912], [75.88965924344679, 22.80299145025765], [75.8898651868015, 22.80319805778664], [75.89001273371153, 22.803414023914748], [75.8901314051895, 22.80368434851274], [75.89025201348686, 22.80425274794203], [75.89034122338292, 22.804487105224794], [75.8906953655175, 22.805009035393915], [75.8907072805164, 22.805343186117646], [75.89059195241336, 22.80558771867953], [75.89035935826665, 22.805778708703464], [75.89003901957071, 22.80596115537825], [75.8899035588788, 22.806106437962534], [75.88968199591741, 22.806496089261007], [75.88948026926967, 22.80693982699193], [75.88935449129676, 22.807076022208626], [75.8891987809986, 22.807103989484908], [75.88846777160363, 22.807062900629845], [75.88806924994724, 22.80720964755613], [75.88780730369461, 22.807382731684246], [75.8875942469208, 22.80758264190883], [75.88742045378673, 22.807827497810507], [75.88727606439772, 22.808099288586384], [75.88723884724956, 22.808370482794157], [75.88727974946184, 22.808668340906365], [75.88738891154254, 22.808974851928443], [75.88779815016483, 22.810481067555855], [75.88821397911191, 22.811499468471546], [75.88836352443307, 22.812022543081625], [75.8884248542637, 22.81246481315222], [75.88840788665186, 22.812853322228204], [75.88826495862398, 22.813350928049857], [75.88798556389845, 22.813840261205762], [75.88769513599759, 22.814130931657715], [75.88627920501693, 22.81515952883851], [75.88560935865122, 22.815542634048754], [75.88349168499802, 22.816548006366798], [75.88297609084667, 22.81667732440994], [75.88193410888002, 22.816773423058343], [75.88110607768563, 22.816805101871683], [75.88104744178095, 22.81677832733231], [75.88072596118734, 22.81678913716982], [75.88070095617218, 22.81593114942477], [75.88050810609481, 22.814730838505017], [75.88051703663305, 22.814604328473436], [75.88057445205284, 22.81444141894329], [75.88056401181152, 22.814333081741474], [75.88046535830512, 22.814143935704916], [75.88034774075406, 22.81403619051315], [75.88012317818705, 22.813965167448927], [75.87977218377802, 22.813930973626203], [75.87963826914094, 22.81280259904861], [75.8792550948128, 22.81079037385275], [75.87861020312774, 22.80898734670914], [75.87848053195555, 22.808518349681894], [75.87852752297592, 22.806729572980785], [75.87862913468479, 22.80586185276048], [75.87884615235693, 22.804758640373393], [75.8791538060384, 22.804115606859355], [75.87954908283433, 22.80346305651064], [75.87980708969336, 22.802675768916824], [75.88055685652198, 22.801090868868716], [75.88098134561409, 22.80043815380661], [75.88145117379759, 22.79926127758552], [75.88148979468085, 22.799206866568007], [75.88161603851107, 22.799142938211617], [75.8819465806852, 22.799032715376978], [75.8820142539313, 22.798951044792364], [75.88203275053635, 22.79879738281869], [75.88185882186427, 22.7975066368063], [75.88176881790591, 22.79714581753614], [75.8809101694098, 22.796942805557894], [75.88080207682492, 22.79679887578386], [75.88070436492906, 22.796754250790727], [75.88030481980704, 22.796738390895733], [75.88019730794242, 22.79668478675372], [75.8799937098453, 22.795321938166385], [75.87998159080965, 22.794951654937464], [75.87998849212987, 22.794509003306068], [75.88010301911692, 22.794138021234385], [75.88011171746271, 22.793975380491943], [75.88004271196877, 22.79384930023587], [75.87950342733151, 22.793310299047405], [75.8793358449886, 22.79300410334507], [75.87705457450984, 22.785139939535117], [75.87545699146378, 22.78514871402504], [75.87521628141623, 22.785592649160463], [75.87501153926249, 22.785566673383528], [75.87491458624005, 22.78563946869267], [75.8748470877658, 22.7857482342232], [75.87447673238931, 22.787249734075356], [75.87449817353104, 22.787556736743273], [75.87445067522346, 22.787746688996528], [75.8707600672614, 22.78952830210854], [75.86751839920915, 22.791451918120796], [75.86569718956542, 22.791543109443115], [75.86573206075977, 22.792437182905267], [75.86462165422792, 22.79247030490241], [75.86345177157983, 22.792341147879277], [75.86255511852073, 22.79228276858136], [75.86081120409223, 22.7922741238265], [75.86038273020812, 22.792303534554282], [75.85923437327811, 22.7924994171569], [75.8579016505282, 22.792813711915983], [75.85794687144009, 22.795369798480525], [75.85806110147581, 22.796498304602714], [75.85800310043837, 22.796570880377107], [75.85653349234525, 22.79681363727538], [75.85531723370991, 22.797064055139174], [75.85405175245769, 22.797233430707912], [75.85280665136493, 22.7975472148797], [75.85114296065946, 22.79791742196747], [75.85090970535313, 22.79800899648695], [75.84934594541946, 22.798785135774423], [75.84862640584947, 22.799014790955987], [75.84737024809979, 22.7991208336324], [75.84781384812058, 22.809407032043683], [75.84800808126006, 22.8108783723891], [75.84846919433232, 22.812962533181675], [75.8484714881969, 22.81333287241557], [75.84831749515266, 22.813640812796802], [75.84733824637556, 22.816003624821942], [75.84649758486164, 22.81714624526816], [75.84619753894208, 22.817473025310413], [75.8414233042988, 22.815944633107126], [75.84118945697107, 22.815945867540258], [75.841063177932, 22.81600976479667], [75.84096679525318, 22.816181899856883], [75.84162058926343, 22.81792181164257], [75.84163138773408, 22.818093381003795], [75.84154524775687, 22.818346759003056], [75.84043009940673, 22.82081864418646], [75.84016751052391, 22.820901325613875], [75.83977758455006, 22.820876282134872], [75.83924100055434, 22.820770713453857]]]}}]}