{"type": "FeatureCollection", "name": "worker_hex_final", "features": [{"type": "Feature", "properties": {"worker_hex_id": "WH-01", "customer_hex_count": 7, "label_lon": 75.8365628, "label_lat": 22.8040434, "customer_hex_ids": ["CH-q-5_r5", "CH-q-5_r6", "CH-q-4_r4", "CH-q-4_r5", "CH-q-4_r6", "CH-q-3_r4", "CH-q-3_r5"], "is_merged": false}, "geometry": {"type": "Polygon", "coordinates": [[[75.8370193, 22.824552], [75.8291402, 22.8287763], [75.8212611, 22.824552], [75.8212611, 22.8161033], [75.813382, 22.811879], [75.813382, 22.8034304], [75.8212611, 22.7992061], [75.8212611, 22.7907574], [75.8291402, 22.7865331], [75.8370193, 22.7907574], [75.8448984, 22.7865331], [75.8527775, 22.7907574], [75.8527775, 22.7992061], [75.8606566, 22.8034304], [75.8606566, 22.811879], [75.8527775, 22.8161033], [75.8527775, 22.824552], [75.8448984, 22.8287763], [75.8370193, 22.824552]]]}}, {"type": "Feature", "properties": {"worker_hex_id": "WH-02", "customer_hex_count": 9, "label_lon": 75.9139864, "label_lat": 22.7930553, "customer_hex_ids": ["CH-q0_r5", "CH-q1_r3", "CH-q1_r4", "CH-q1_r5", "CH-q2_r3", "CH-q2_r4", "CH-q2_r5", "CH-q3_r4", "CH-q3_r5"], "is_merged": false}, "geometry": {"type": "Polygon", "coordinates": [[[75.9079312, 22.811879], [75.9000521, 22.8161033], [75.892173, 22.811879], [75.892173, 22.8034304], [75.9000521, 22.7992061], [75.9000521, 22.7907574], [75.892173, 22.7865331], [75.892173, 22.7780845], [75.9000521, 22.7738601], [75.9079312, 22.7780845], [75.9158103, 22.7738601], [75.9236894, 22.7780845], [75.9236894, 22.7865331], [75.9315685, 22.7907574], [75.9394476, 22.7865331], [75.9473267, 22.7907574], [75.9473267, 22.7992061], [75.9552058, 22.8034304], [75.9552058, 22.811879], [75.9473267, 22.8161033], [75.9394476, 22.811879], [75.9315685, 22.8161033], [75.9236894, 22.811879], [75.9158103, 22.8161033], [75.9079312, 22.811879]]]}}, {"type": "Feature", "properties": {"worker_hex_id": "WH-03", "customer_hex_count": 7, "label_lon": 75.8352481, "label_lat": 22.7694512, "customer_hex_ids": ["CH-q-4_r2", "CH-q-4_r3", "CH-q-3_r1", "CH-q-3_r2", "CH-q-3_r3", "CH-q-2_r1", "CH-q-2_r2"], "is_merged": false}, "geometry": {"type": "Polygon", "coordinates": [[[75.8291402, 22.7865331], [75.8212611, 22.7907574], [75.813382, 22.7865331], [75.813382, 22.7780845], [75.8055029, 22.7738601], [75.8055029, 22.7654115], [75.813382, 22.7611872], [75.813382, 22.7527385], [75.8212611, 22.7485142], [75.8291402, 22.7527385], [75.8370193, 22.7485142], [75.8448984, 22.7527385], [75.8448984, 22.7611872], [75.8527775, 22.7654115], [75.8527775, 22.7738601], [75.8448984, 22.7780845], [75.8448984, 22.7865331], [75.8370193, 22.7907574], [75.8291402, 22.7865331]]]}}, {"type": "Feature", "properties": {"worker_hex_id": "WH-04", "customer_hex_count": 10, "label_lon": 75.865341, "label_lat": 22.7773192, "customer_hex_ids": ["CH-q-2_r3", "CH-q-2_r4", "CH-q-2_r6", "CH-q-1_r2", "CH-q-1_r3", "CH-q-1_r4", "CH-q-1_r5", "CH-q0_r2", "CH-q0_r3", "CH-q0_r4"], "is_merged": false}, "geometry": {"type": "Polygon", "coordinates": [[[75.8527775, 22.7738601], [75.8527775, 22.7654115], [75.8606566, 22.7611872], [75.8685357, 22.7654115], [75.8764148, 22.7611872], [75.8842939, 22.7654115], [75.8842939, 22.7738601], [75.892173, 22.7780845], [75.892173, 22.7865331], [75.9000521, 22.7907574], [75.9000521, 22.7992061], [75.892173, 22.8034304], [75.892173, 22.811879], [75.8842939, 22.8161033], [75.8842939, 22.824552], [75.8764148, 22.8287763], [75.8685357, 22.824552], [75.8685357, 22.8161033], [75.8764148, 22.811879], [75.8764148, 22.8034304], [75.8685357, 22.7992061], [75.8606566, 22.8034304], [75.8527775, 22.7992061], [75.8527775, 22.7907574], [75.8448984, 22.7865331], [75.8448984, 22.7780845], [75.8527775, 22.7738601]]]}}, {"type": "Feature", "properties": {"worker_hex_id": "WH-05", "customer_hex_count": 6, "label_lon": 75.9309319, "label_lat": 22.7695869, "customer_hex_ids": ["CH-q3_r2", "CH-q3_r3", "CH-q4_r1", "CH-q4_r2", "CH-q4_r3", "CH-q5_r1"], "is_merged": false}, "geometry": {"type": "Polygon", "coordinates": [[[75.9552058, 22.7611872], [75.9473267, 22.7654115], [75.9473267, 22.7738601], [75.9552058, 22.7780845], [75.9552058, 22.7865331], [75.9473267, 22.7907574], [75.9394476, 22.7865331], [75.9315685, 22.7907574], [75.9236894, 22.7865331], [75.9236894, 22.7780845], [75.9158103, 22.7738601], [75.9158103, 22.7654115], [75.9236894, 22.7611872], [75.9236894, 22.7527385], [75.9315685, 22.7485142], [75.9394476, 22.7527385], [75.9473267, 22.7485142], [75.9552058, 22.7527385], [75.9552058, 22.7611872]]]}}, {"type": "Feature", "properties": {"worker_hex_id": "WH-06", "customer_hex_count": 7, "label_lon": 75.7915695, "label_lat": 22.7541221, "customer_hex_ids": ["CH-q-6_r1", "CH-q-6_r2", "CH-q-5_r0", "CH-q-5_r1", "CH-q-5_r2", "CH-q-4_r0", "CH-q-4_r1"], "is_merged": false}, "geometry": {"type": "Polygon", "coordinates": [[[75.7739865, 22.7654115], [75.7661074, 22.7611872], [75.7661074, 22.7527385], [75.7739865, 22.7485142], [75.7739865, 22.7400656], [75.7818656, 22.7358412], [75.7897447, 22.7400656], [75.7976238, 22.7358412], [75.8055029, 22.7400656], [75.8055029, 22.7485142], [75.813382, 22.7527385], [75.813382, 22.7611872], [75.8055029, 22.7654115], [75.8055029, 22.7738601], [75.7976238, 22.7780845], [75.7897447, 22.7738601], [75.7818656, 22.7780845], [75.7739865, 22.7738601], [75.7739865, 22.7654115]]]}}, {"type": "Feature", "properties": {"worker_hex_id": "WH-07", "customer_hex_count": 7, "label_lon": 75.8606664, "label_lat": 22.7442192, "customer_hex_ids": ["CH-q-1_r0", "CH-q-1_r1", "CH-q0_r-1", "CH-q0_r0", "CH-q0_r1", "CH-q1_r-1", "CH-q1_r0"], "is_merged": false}, "geometry": {"type": "Polygon", "coordinates": [[[75.8448984, 22.7358412], [75.8448984, 22.7273926], [75.8527775, 22.7231683], [75.8606566, 22.7273926], [75.8685357, 22.7231683], [75.8764148, 22.7273926], [75.8764148, 22.7358412], [75.8842939, 22.7400656], [75.8842939, 22.7485142], [75.8764148, 22.7527385], [75.8764148, 22.7611872], [75.8685357, 22.7654115], [75.8606566, 22.7611872], [75.8527775, 22.7654115], [75.8448984, 22.7611872], [75.8448984, 22.7527385], [75.8370193, 22.7485142], [75.8370193, 22.7400656], [75.8448984, 22.7358412]]]}}, {"type": "Feature", "properties": {"worker_hex_id": "WH-08", "customer_hex_count": 7, "label_lon": 75.8999625, "label_lat": 22.7569709, "customer_hex_ids": ["CH-q1_r1", "CH-q1_r2", "CH-q2_r0", "CH-q2_r1", "CH-q2_r2", "CH-q3_r0", "CH-q3_r1"], "is_merged": false}, "geometry": {"type": "Polygon", "coordinates": [[[75.9158103, 22.7738601], [75.9079312, 22.7780845], [75.9000521, 22.7738601], [75.892173, 22.7780845], [75.8842939, 22.7738601], [75.8842939, 22.7654115], [75.8764148, 22.7611872], [75.8764148, 22.7527385], [75.8842939, 22.7485142], [75.8842939, 22.7400656], [75.892173, 22.7358412], [75.9000521, 22.7400656], [75.9079312, 22.7358412], [75.9158103, 22.7400656], [75.9158103, 22.7485142], [75.9236894, 22.7527385], [75.9236894, 22.7611872], [75.9158103, 22.7654115], [75.9158103, 22.7738601]]]}}, {"type": "Feature", "properties": {"worker_hex_id": "WH-09", "customer_hex_count": 7, "label_lon": 75.8212242, "label_lat": 22.7316033, "customer_hex_ids": ["CH-q-3_r-1", "CH-q-3_r0", "CH-q-2_r-2", "CH-q-2_r-1", "CH-q-2_r0", "CH-q-1_r-2", "CH-q-1_r-1"], "is_merged": false}, "geometry": {"type": "Polygon", "coordinates": [[[75.8055029, 22.7231683], [75.8055029, 22.7147196], [75.813382, 22.7104953], [75.8212611, 22.7147196], [75.8291402, 22.7104953], [75.8370193, 22.7147196], [75.8370193, 22.7231683], [75.8448984, 22.7273926], [75.8448984, 22.7358412], [75.8370193, 22.7400656], [75.8370193, 22.7485142], [75.8291402, 22.7527385], [75.8212611, 22.7485142], [75.813382, 22.7527385], [75.8055029, 22.7485142], [75.8055029, 22.7400656], [75.7976238, 22.7358412], [75.7976238, 22.7273926], [75.8055029, 22.7231683]]]}}, {"type": "Feature", "properties": {"worker_hex_id": "WH-10", "customer_hex_count": 7, "label_lon": 75.8527779, "label_lat": 22.7062356, "customer_hex_ids": ["CH-q0_r-3", "CH-q0_r-2", "CH-q1_r-4", "CH-q1_r-3", "CH-q1_r-2", "CH-q2_r-4", "CH-q2_r-3"], "is_merged": false}, "geometry": {"type": "Polygon", "coordinates": [[[75.8527775, 22.7231683], [75.8448984, 22.7273926], [75.8370193, 22.7231683], [75.8370193, 22.7147196], [75.8291402, 22.7104953], [75.8291402, 22.7020467], [75.8370193, 22.6978224], [75.8370193, 22.6893737], [75.8448984, 22.6851494], [75.8527775, 22.6893737], [75.8606566, 22.6851494], [75.8685357, 22.6893737], [75.8685357, 22.6978224], [75.8764148, 22.7020467], [75.8764148, 22.7104953], [75.8685357, 22.7147196], [75.8685357, 22.7231683], [75.8606566, 22.7273926], [75.8527775, 22.7231683]]]}}, {"type": "Feature", "properties": {"worker_hex_id": "WH-11", "customer_hex_count": 7, "label_lon": 75.892074, "label_lat": 22.7188516, "customer_hex_ids": ["CH-q2_r-2", "CH-q2_r-1", "CH-q3_r-3", "CH-q3_r-2", "CH-q3_r-1", "CH-q4_r-3", "CH-q4_r-2"], "is_merged": false}, "geometry": {"type": "Polygon", "coordinates": [[[75.9000521, 22.6978224], [75.892173, 22.7020467], [75.8842939, 22.6978224], [75.8764148, 22.7020467], [75.8764148, 22.7104953], [75.8685357, 22.7147196], [75.8685357, 22.7231683], [75.8764148, 22.7273926], [75.8764148, 22.7358412], [75.8842939, 22.7400656], [75.892173, 22.7358412], [75.9000521, 22.7400656], [75.9079312, 22.7358412], [75.9079312, 22.7273926], [75.9158103, 22.7231683], [75.9158103, 22.7147196], [75.9079312, 22.7104953], [75.9079312, 22.7020467], [75.9000521, 22.6978224]]]}}, {"type": "Feature", "properties": {"worker_hex_id": "WH-12", "customer_hex_count": 7, "label_lon": 75.9315162, "label_lat": 22.7316033, "customer_hex_ids": ["CH-q4_r-1", "CH-q4_r0", "CH-q5_r-2", "CH-q5_r-1", "CH-q5_r0", "CH-q6_r-2", "CH-q6_r-1"], "is_merged": false}, "geometry": {"type": "Polygon", "coordinates": [[[75.9315685, 22.7485142], [75.9236894, 22.7527385], [75.9158103, 22.7485142], [75.9158103, 22.7400656], [75.9079312, 22.7358412], [75.9079312, 22.7273926], [75.9158103, 22.7231683], [75.9158103, 22.7147196], [75.9236894, 22.7104953], [75.9315685, 22.7147196], [75.9394476, 22.7104953], [75.9473267, 22.7147196], [75.9473267, 22.7231683], [75.9552058, 22.7273926], [75.9552058, 22.7358412], [75.9473267, 22.7400656], [75.9473267, 22.7485142], [75.9394476, 22.7527385], [75.9315685, 22.7485142]]]}}, {"type": "Feature", "properties": {"worker_hex_id": "WH-13", "customer_hex_count": 9, "label_lon": 75.9678907, "label_lat": 22.7302467, "customer_hex_ids": ["CH-q6_r0", "CH-q7_r-3", "CH-q7_r-2", "CH-q7_r-1", "CH-q7_r0", "CH-q8_r-3", "CH-q8_r-2", "CH-q8_r-1", "CH-q9_r-2"], "is_merged": false}, "geometry": {"type": "Polygon", "coordinates": [[[75.9552058, 22.7020467], [75.9630848, 22.6978224], [75.9709639, 22.7020467], [75.9709639, 22.7104953], [75.978843, 22.7147196], [75.9867221, 22.7104953], [75.9946012, 22.7147196], [75.9946012, 22.7231683], [75.9867221, 22.7273926], [75.9867221, 22.7358412], [75.978843, 22.7400656], [75.978843, 22.7485142], [75.9709639, 22.7527385], [75.9630848, 22.7485142], [75.9552058, 22.7527385], [75.9473267, 22.7485142], [75.9473267, 22.7400656], [75.9552058, 22.7358412], [75.9552058, 22.7273926], [75.9473267, 22.7231683], [75.9473267, 22.7147196], [75.9394476, 22.7104953], [75.9394476, 22.7020467], [75.9473267, 22.6978224], [75.9552058, 22.7020467]]]}}, {"type": "Feature", "properties": {"worker_hex_id": "WH-14", "customer_hex_count": 11, "label_lon": 75.8161113, "label_lat": 22.6909065, "customer_hex_ids": ["CH-q-4_r-1", "CH-q-3_r-2", "CH-q-2_r-6", "CH-q-2_r-5", "CH-q-2_r-4", "CH-q-2_r-3", "CH-q-1_r-5", "CH-q-1_r-4", "CH-q-1_r-3", "CH-q0_r-5", "CH-q0_r-4"], "is_merged": false}, "geometry": {"type": "Polygon", "coordinates": [[[75.8370193, 22.6978224], [75.8291402, 22.7020467], [75.8291402, 22.7104953], [75.8212611, 22.7147196], [75.813382, 22.7104953], [75.8055029, 22.7147196], [75.8055029, 22.7231683], [75.7976238, 22.7273926], [75.7976238, 22.7358412], [75.7897447, 22.7400656], [75.7818656, 22.7358412], [75.7818656, 22.7273926], [75.7897447, 22.7231683], [75.7897447, 22.7147196], [75.7976238, 22.7104953], [75.7976238, 22.7020467], [75.7897447, 22.6978224], [75.7897447, 22.6893737], [75.7818656, 22.6851494], [75.7818656, 22.6767008], [75.7739865, 22.6724764], [75.7739865, 22.6640278], [75.7818656, 22.6598035], [75.7897447, 22.6640278], [75.7897447, 22.6724764], [75.7976238, 22.6767008], [75.8055029, 22.6724764], [75.813382, 22.6767008], [75.8212611, 22.6724764], [75.8291402, 22.6767008], [75.8291402, 22.6851494], [75.8370193, 22.6893737], [75.8370193, 22.6978224]]]}}, {"type": "Feature", "properties": {"worker_hex_id": "WH-15", "customer_hex_count": 7, "label_lon": 75.8841856, "label_lat": 22.680868, "customer_hex_ids": ["CH-q3_r-5", "CH-q3_r-4", "CH-q4_r-6", "CH-q4_r-5", "CH-q4_r-4", "CH-q5_r-6", "CH-q5_r-5"], "is_merged": false}, "geometry": {"type": "Polygon", "coordinates": [[[75.8842939, 22.6978224], [75.8764148, 22.7020467], [75.8685357, 22.6978224], [75.8685357, 22.6893737], [75.8606566, 22.6851494], [75.8606566, 22.6767008], [75.8685357, 22.6724764], [75.8685357, 22.6640278], [75.8764148, 22.6598035], [75.8842939, 22.6640278], [75.892173, 22.6598035], [75.9000521, 22.6640278], [75.9000521, 22.6724764], [75.9079312, 22.6767008], [75.9079312, 22.6851494], [75.9000521, 22.6893737], [75.9000521, 22.6978224], [75.892173, 22.7020467], [75.8842939, 22.6978224]]]}}, {"type": "Feature", "properties": {"worker_hex_id": "WH-16", "customer_hex_count": 11, "label_lon": 75.922167, "label_lat": 22.6980963, "customer_hex_ids": ["CH-q5_r-4", "CH-q5_r-3", "CH-q6_r-7", "CH-q6_r-6", "CH-q6_r-5", "CH-q6_r-4", "CH-q6_r-3", "CH-q7_r-7", "CH-q7_r-6", "CH-q7_r-5", "CH-q7_r-4"], "is_merged": false}, "geometry": {"type": "Polygon", "coordinates": [[[75.9000521, 22.6640278], [75.892173, 22.6598035], [75.892173, 22.6513548], [75.9000521, 22.6471305], [75.9079312, 22.6513548], [75.9158103, 22.6471305], [75.9236894, 22.6513548], [75.9236894, 22.6598035], [75.9315685, 22.6640278], [75.9315685, 22.6724764], [75.9394476, 22.6767008], [75.9394476, 22.6851494], [75.9473267, 22.6893737], [75.9473267, 22.6978224], [75.9394476, 22.7020467], [75.9394476, 22.7104953], [75.9315685, 22.7147196], [75.9236894, 22.7104953], [75.9158103, 22.7147196], [75.9079312, 22.7104953], [75.9079312, 22.7020467], [75.9000521, 22.6978224], [75.9000521, 22.6893737], [75.9079312, 22.6851494], [75.9079312, 22.6767008], [75.9000521, 22.6724764], [75.9000521, 22.6640278]]]}}, {"type": "Feature", "properties": {"worker_hex_id": "WH-17", "customer_hex_count": 7, "label_lon": 75.8448895, "label_lat": 22.668252, "customer_hex_ids": ["CH-q1_r-6", "CH-q1_r-5", "CH-q2_r-7", "CH-q2_r-6", "CH-q2_r-5", "CH-q3_r-7", "CH-q3_r-6"], "is_merged": false}, "geometry": {"type": "Polygon", "coordinates": [[[75.8291402, 22.6767008], [75.8212611, 22.6724764], [75.8212611, 22.6640278], [75.8291402, 22.6598035], [75.8291402, 22.6513548], [75.8370193, 22.6471305], [75.8448984, 22.6513548], [75.8527775, 22.6471305], [75.8606566, 22.6513548], [75.8606566, 22.6598035], [75.8685357, 22.6640278], [75.8685357, 22.6724764], [75.8606566, 22.6767008], [75.8606566, 22.6851494], [75.8527775, 22.6893737], [75.8448984, 22.6851494], [75.8370193, 22.6893737], [75.8291402, 22.6851494], [75.8291402, 22.6767008]]]}}, {"type": "Feature", "properties": {"worker_hex_id": "WH-18", "customer_hex_count": 9, "label_lon": 75.8426983, "label_lat": 22.639493, "customer_hex_ids": ["CH-q-1_r-7", "CH-q-1_r-6", "CH-q0_r-7", "CH-q0_r-6", "CH-q1_r-7", "CH-q2_r-8", "CH-q3_r-9", "CH-q3_r-8", "CH-q4_r-9"], "is_merged": false}, "geometry": {"type": "Polygon", "coordinates": [[[75.7897447, 22.6640278], [75.7818656, 22.6598035], [75.7818656, 22.6513548], [75.7897447, 22.6471305], [75.7976238, 22.6513548], [75.8055029, 22.6471305], [75.813382, 22.6513548], [75.8212611, 22.6471305], [75.8212611, 22.6386819], [75.8291402, 22.6344576], [75.8291402, 22.6260089], [75.8370193, 22.6217846], [75.8448984, 22.6260089], [75.8527775, 22.6217846], [75.8606566, 22.6260089], [75.8606566, 22.6344576], [75.8527775, 22.6386819], [75.8527775, 22.6471305], [75.8448984, 22.6513548], [75.8370193, 22.6471305], [75.8291402, 22.6513548], [75.8291402, 22.6598035], [75.8212611, 22.6640278], [75.8212611, 22.6724764], [75.813382, 22.6767008], [75.8055029, 22.6724764], [75.7976238, 22.6767008], [75.7897447, 22.6724764], [75.7897447, 22.6640278]]]}}, {"type": "Feature", "properties": {"worker_hex_id": "WH-19", "customer_hex_count": 7, "label_lon": 75.8726451, "label_lat": 22.64302, "customer_hex_ids": ["CH-q4_r-8", "CH-q4_r-7", "CH-q5_r-9", "CH-q5_r-8", "CH-q5_r-7", "CH-q6_r-9", "CH-q6_r-8"], "is_merged": false}, "geometry": {"type": "Polygon", "coordinates": [[[75.8764148, 22.6598035], [75.8685357, 22.6640278], [75.8606566, 22.6598035], [75.8606566, 22.6513548], [75.8527775, 22.6471305], [75.8527775, 22.6386819], [75.8606566, 22.6344576], [75.8606566, 22.6260089], [75.8685357, 22.6217846], [75.8764148, 22.6260089], [75.8842939, 22.6217846], [75.892173, 22.6260089], [75.892173, 22.6344576], [75.9000521, 22.6386819], [75.9000521, 22.6471305], [75.892173, 22.6513548], [75.892173, 22.6598035], [75.8842939, 22.6640278], [75.8764148, 22.6598035]]]}}]}